Id,Source,Site name,Address,Zip,Phone,Fax,Program Name,Length of Day,IDHS Provider ID,Agency,Neighborhood,Funded Enrollment,Program Option,Number per Site EHS,Number per Site HS,Director,Head Start Fund,Eearly Head Start Fund,CC fund,Progmod,Website,Executive Director,Center Director,ECE Available Programs,NAEYC Valid Until,NAEYC Program Id,Email Address,Ounce of Prevention Description,Purple binder service type,Column,Column2
0,CPS_Early_Childhood_Portal_scrape.csv, Salvation Army - Temple / Salvation Army,1 N Ogden Ave ,,2262649,,Child Care,EXTENDED DAY,,,,,,,,,,,,,,,,,,,,,,,
1,CPS_Early_Childhood_Portal_scrape.csv, Salvation Army - Temple / Salvation Army,1 N Ogden Ave ,,2262649,,Child Care,EXTENDED DAY,,,,,,,,,,,,,,,,,,,,,,,
2,CPS_Early_Childhood_Portal_scrape.csv, National Louis University - Dr. Effie O. Ellis Training Center,10 S Kedzie Ave ,,5339011,,Child Care,EXTENDED DAY,,,,,,,,,,,,,,,,,,,,,,,
3,CPS_Early_Childhood_Portal_scrape.csv, National Louis University - Dr. Effie O. Ellis Training Center,10 S Kedzie Ave ,,5339011,,Child Care,EXTENDED DAY,,,,,,,,,,,,,,,,,,,,,,,
4,CPS_Early_Childhood_Portal_scrape.csv, Board Trustees-City Colleges of Chicago - Olive-Harvey College,10001 S Woodlawn Ave ,,2916100,,Child Care,EXTENDED DAY,,,,,,,,,,,,,,,,,,,,,,,
5,CPS_Early_Childhood_Portal_scrape.csv, Board Trustees-City Colleges of Chicago - Olive-Harvey College,10001 S Woodlawn Ave ,,2916100,,Child Care,EXTENDED DAY,,,,,,,,,,,,,,,,,,,,,,,
6,CPS_Early_Childhood_Portal_scrape.csv, Easter Seals Society of Metropolitan Chicago - Gilchrist-Marchman,1001 W Roosevelt Rd ,,9395115,,Child Care,EXTENDED DAY,,,,,,,,,,,,,,,,,,,,,,,
7,CPS_Early_Childhood_Portal_scrape.csv, Easter Seals Society of Metropolitan Chicago - Gilchrist-Marchman,1001 W Roosevelt Rd ,,9395115,,Child Care,EXTENDED DAY,,,,,,,,,,,,,,,,,,,,,,,
8,CPS_Early_Childhood_Portal_scrape.csv, Hull House Association - Uptown Head Start / Hull House,1020 W Bryn Mawr Ave ,,7695753,,Child Care,EXTENDED DAY,,,,,,,,,,,,,,,,,,,,,,,
9,CPS_Early_Childhood_Portal_scrape.csv, Hull House Association - Child Dev. Central Office- Hull House CDS-Homes,1030 W Van Buren St ,,9068600,,Child Care,EXTENDED DAY,,,,,,,,,,,,,,,,,,,,,,,
10,CPS_Early_Childhood_Portal_scrape.csv, Hull House Association - Child Dev. Central Office- Hull House CDS-Homes,1030 W Van Buren St ,,9068600,,Child Care,EXTENDED DAY,,,,,,,,,,,,,,,,,,,,,,,
11,CPS_Early_Childhood_Portal_scrape.csv, Catholic Charities of the Archdiocese of Chicago - St. Kevin,10509 S Torrence Ave ,,3746466,,Child Care,EXTENDED DAY,,,,,,,,,,,,,,,,,,,,,,,
12,CPS_Early_Childhood_Portal_scrape.csv, Catholic Charities of the Archdiocese of Chicago - St. Kevin,10509 S Torrence Ave ,,3746466,,Child Care,EXTENDED DAY,,,,,,,,,,,,,,,,,,,,,,,
13,CPS_Early_Childhood_Portal_scrape.csv, Chicago State University - Community Learning Center,10612 S Wentworth ,,,,Child Care,EXTENDED DAY,,,,,,,,,,,,,,,,,,,,,,,
14,CPS_Early_Childhood_Portal_scrape.csv, Catholic Charities of the Archdiocese of Chicago - Cordia Marian,1100 S May St ,,6663787,,Child Care,EXTENDED DAY,,,,,,,,,,,,,,,,,,,,,,,
15,CPS_Early_Childhood_Portal_scrape.csv, Catholic Charities of the Archdiocese of Chicago - Cordia Marian,1100 S May St ,,6663787,,Child Care,EXTENDED DAY,,,,,,,,,,,,,,,,,,,,,,,
16,CPS_Early_Childhood_Portal_scrape.csv, Thresholds - Thresholds Mothers' Project,1110 W Belmont Ave ,,4723558,,Child Care,EXTENDED DAY,,,,,,,,,,,,,,,,,,,,,,,
17,CPS_Early_Childhood_Portal_scrape.csv, Bethel New Life - Molade Child Development Center,1120 N Lamon Ave ,,6267760,,Child Care,EXTENDED DAY,,,,,,,,,,,,,,,,,,,,,,,
18,CPS_Early_Childhood_Portal_scrape.csv, South East Asia Center - South-East Asia Center(Ainslie),1124 W Ainslie St ,,9897433,,Child Care,EXTENDED DAY,,,,,,,,,,,,,,,,,,,,,,,
19,CPS_Early_Childhood_Portal_scrape.csv, Ada S. McKinley Community Services - McKinley - Roseland,11410 S Edbrooke Ave ,,4681918,,Child Care,EXTENDED DAY,,,,,,,,,,,,,,,,,,,,,,,
20,CPS_Early_Childhood_Portal_scrape.csv, Ada S. McKinley Community Services - McKinley - Roseland,11410 S Edbrooke Ave ,,4681918,,Child Care,EXTENDED DAY,,,,,,,,,,,,,,,,,,,,,,,
21,CPS_Early_Childhood_Portal_scrape.csv, Board Trustees-City Colleges of Chicago - Truman,1145 W Wilson Ave ,,8781700,,Child Care,EXTENDED DAY,,,,,,,,,,,,,,,,,,,,,,,
22,CPS_Early_Childhood_Portal_scrape.csv, Chicago State University - Gingerbread House,11640 S Wentworth Ave ,,9284041,,Child Care,EXTENDED DAY,,,,,,,,,,,,,,,,,,,,,,,
23,CPS_Early_Childhood_Portal_scrape.csv, Chicago State University - Gingerbread House,11640 S Wentworth Ave ,,9284041,,Child Care,EXTENDED DAY,,,,,,,,,,,,,,,,,,,,,,,
24,CPS_Early_Childhood_Portal_scrape.csv, Chicago State University - Academy of Early Education,124 E 113th St ,,7858163,,Child Care,EXTENDED DAY,,,,,,,,,,,,,,,,,,,,,,,
25,CPS_Early_Childhood_Portal_scrape.csv, Chicago State University - Academy of Early Education,124 E 113th St ,,7858163,,Child Care,EXTENDED DAY,,,,,,,,,,,,,,,,,,,,,,,
26,CPS_Early_Childhood_Portal_scrape.csv, Easter Seals Society of Metropolitan Chicago - Stepping Stones Early/Childhood Lear,1300 E 75th St ,,4930000,,Child Care,EXTENDED DAY,,,,,,,,,,,,,,,,,,,,,,,
27,CPS_Early_Childhood_Portal_scrape.csv, Marcy Newberry Association - FOSCO ABLA Center,1312 S Racine Ave ,,7466024,,Child Care,EXTENDED DAY,,,,,,,,,,,,,,,,,,,,,,,
28,CPS_Early_Childhood_Portal_scrape.csv, Marcy Newberry Association - FOSCO ABLA Center,1312 S Racine Ave ,,7466024,,Child Care,EXTENDED DAY,,,,,,,,,,,,,,,,,,,,,,,
29,CPS_Early_Childhood_Portal_scrape.csv, Salvation Army - Incarnation / Salvation Army,1345 N Karlov Ave ,,2764118,,Child Care,EXTENDED DAY,,,,,,,,,,,,,,,,,,,,,,,
30,CPS_Early_Childhood_Portal_scrape.csv, Abraham Lincoln Centre - Hope Presbyterian Church,1354 W 61st St ,,4715100,,Child Care,EXTENDED DAY,,,,,,,,,,,,,,,,,,,,,,,
31,CPS_Early_Childhood_Portal_scrape.csv, Catholic Charities of the Archdiocese of Chicago - Our Lady of Lourdes,1449 S Keeler Ave ,,5213126,,Child Care,EXTENDED DAY,,,,,,,,,,,,,,,,,,,,,,,
32,CPS_Early_Childhood_Portal_scrape.csv, Catholic Charities of the Archdiocese of Chicago - Our Lady of Lourdes,1449 S Keeler Ave ,,5213126,,Child Care,EXTENDED DAY,,,,,,,,,,,,,,,,,,,,,,,
33,CPS_Early_Childhood_Portal_scrape.csv, Lutheran Social Services of Illinois - North Austin / LSSI,1500 N Mason Ave ,,2371930,,Child Care,EXTENDED DAY,,,,,,,,,,,,,,,,,,,,,,,
34,CPS_Early_Childhood_Portal_scrape.csv, Marcy Newberry Association - New Birth,1500 W 69th St ,,4710699,,Child Care,EXTENDED DAY,,,,,,,,,,,,,,,,,,,,,,,
35,CPS_Early_Childhood_Portal_scrape.csv, Chicago Youth Centers - Mt. Moriah-Taylor / CYC,1501 N Harding Ave ,,2785837,,Child Care,EXTENDED DAY,,,,,,,,,,,,,,,,,,,,,,,
36,CPS_Early_Childhood_Portal_scrape.csv, Marcy Newberry Association - Marcy Center,1539 S Springfield Ave ,,7612300,,Child Care,EXTENDED DAY,,,,,,,,,,,,,,,,,,,,,,,
37,CPS_Early_Childhood_Portal_scrape.csv, Marcy Newberry Association - Marcy Center,1539 S Springfield Ave ,,7612300,,Child Care,EXTENDED DAY,,,,,,,,,,,,,,,,,,,,,,,
38,CPS_Early_Childhood_Portal_scrape.csv, Mary Crane League - Mary Crane - Morse,1545 W Morse Ave ,,2621390,,Child Care,EXTENDED DAY,,,,,,,,,,,,,,,,,,,,,,,
39,CPS_Early_Childhood_Portal_scrape.csv, South Shore Bible - Maranatha,1631 E 71st St ,,4937500,,Child Care,EXTENDED DAY,,,,,,,,,,,,,,,,,,,,,,,
40,CPS_Early_Childhood_Portal_scrape.csv, Chicago Commons Association - Taylor Center for New Experiences,1633 N Hamlin Ave ,,2278551,,Child Care,EXTENDED DAY,,,,,,,,,,,,,,,,,,,,,,,
41,CPS_Early_Childhood_Portal_scrape.csv, Catholic Charities of the Archdiocese of Chicago - Ebenezer,1652 W Foster Ave ,,8789925,,Child Care,EXTENDED DAY,,,,,,,,,,,,,,,,,,,,,,,
42,CPS_Early_Childhood_Portal_scrape.csv, Chicago Commons Association - Paulo Freire,1653 W 43rd St ,,8262669,,Child Care,EXTENDED DAY,,,,,,,,,,,,,,,,,,,,,,,
43,CPS_Early_Childhood_Portal_scrape.csv, Erie Neighborhood House - Erie Community Center,1701 W Superior St ,,5635800,,Child Care,EXTENDED DAY,,,,,,,,,,,,,,,,,,,,,,,
44,CPS_Early_Childhood_Portal_scrape.csv, El Valor - Little Tykes I,1711 W 35th St ,,2547700,,Child Care,EXTENDED DAY,,,,,,,,,,,,,,,,,,,,,,,
45,CPS_Early_Childhood_Portal_scrape.csv, El Valor - Little Tykes I,1711 W 35th St ,,2547700,,Child Care,EXTENDED DAY,,,,,,,,,,,,,,,,,,,,,,,
46,CPS_Early_Childhood_Portal_scrape.csv, ChildServ - Pilsen,1711 W Garfield Blvd ,,,,Child Care,EXTENDED DAY,,,,,,,,,,,,,,,,,,,,,,,
47,CPS_Early_Childhood_Portal_scrape.csv, El Hogar del Nino/Cuidar - El Hogar del Nino/El Centro - Loomis,1718 S Loomis Blvd ,,5639796,,Child Care,EXTENDED DAY,,,,,,,,,,,,,,,,,,,,,,,
48,CPS_Early_Childhood_Portal_scrape.csv, El Hogar del Nino/Cuidar - El Hogar del Nino/El Centro - Loomis,1718 S Loomis Blvd ,,5639796,,Child Care,EXTENDED DAY,,,,,,,,,,,,,,,,,,,,,,,
49,CPS_Early_Childhood_Portal_scrape.csv, El Valor - Little Tykes II,1723 W 35th St ,,5791791,,Child Care,EXTENDED DAY,,,,,,,,,,,,,,,,,,,,,,,
50,CPS_Early_Childhood_Portal_scrape.csv, El Valor - Little Tykes II,1723 W 35th St ,,5791791,,Child Care,EXTENDED DAY,,,,,,,,,,,,,,,,,,,,,,,
51,CPS_Early_Childhood_Portal_scrape.csv, Church of God True Believers - Church of God Day Care,1738 W Marquette Rd ,,4715222,,Child Care,EXTENDED DAY,,,,,,,,,,,,,,,,,,,,,,,
52,CPS_Early_Childhood_Portal_scrape.csv, Lutheran Social Services of Illinois - Rogers Park / LSSI,1754 W Devon Ave ,,2623366,,Child Care,EXTENDED DAY,,,,,,,,,,,,,,,,,,,,,,,
53,CPS_Early_Childhood_Portal_scrape.csv, Chicago Commons Association - Guadalupano Family Center,1814 S Paulina St ,,6663883,,Child Care,EXTENDED DAY,,,,,,,,,,,,,,,,,,,,,,,
54,CPS_Early_Childhood_Portal_scrape.csv, Chicago Commons Association - Guadalupano Family Center,1814 S Paulina St ,,6663883,,Child Care,EXTENDED DAY,,,,,,,,,,,,,,,,,,,,,,,
55,CPS_Early_Childhood_Portal_scrape.csv, YMCA of Metropolitan Chicago - McCormick Tribune- YMCA,1834 N Lawndale Ave ,,2352525,,Child Care,EXTENDED DAY,,,,,,,,,,,,,,,,,,,,,,,
56,CPS_Early_Childhood_Portal_scrape.csv, Board Trustees-City Colleges of Chicago - Malcolm X College,1900 W Van Buren St ,,8507000,,Child Care,EXTENDED DAY,,,,,,,,,,,,,,,,,,,,,,,
57,CPS_Early_Childhood_Portal_scrape.csv, Board Trustees-City Colleges of Chicago - Malcolm X College,1900 W Van Buren St ,,8507000,,Child Care,EXTENDED DAY,,,,,,,,,,,,,,,,,,,,,,,
58,CPS_Early_Childhood_Portal_scrape.csv, El Valor - Guadalupe Reyes Children & Family Center,1951 W 19th St ,,9972021,,Child Care,EXTENDED DAY,,,,,,,,,,,,,,,,,,,,,,,
59,CPS_Early_Childhood_Portal_scrape.csv, El Valor - Guadalupe Reyes Children & Family Center,1951 W 19th St ,,9972021,,Child Care,EXTENDED DAY,,,,,,,,,,,,,,,,,,,,,,,
60,CPS_Early_Childhood_Portal_scrape.csv, North Avenue Day Nursery - North Avenue Day Nursery,2001 W Pierce Ave ,,3424499,,Child Care,EXTENDED DAY,,,,,,,,,,,,,,,,,,,,,,,
61,CPS_Early_Childhood_Portal_scrape.csv, Carole Robertson Center For Learning - Carole Robertson Center CTR 2020,2020 W Roosevelt Rd ,,2437300,,Child Care,EXTENDED DAY,,,,,,,,,,,,,,,,,,,,,,,
62,CPS_Early_Childhood_Portal_scrape.csv, Carole Robertson Center For Learning - Carole Robertson Center CTR 2020,2020 W Roosevelt Rd ,,2437300,,Child Care,EXTENDED DAY,,,,,,,,,,,,,,,,,,,,,,,
63,CPS_Early_Childhood_Portal_scrape.csv, Chinese American Service League - Chinese American Service League,2141 S Tan Ct ,,7910418,,Child Care,EXTENDED DAY,,,,,,,,,,,,,,,,,,,,,,,
64,CPS_Early_Childhood_Portal_scrape.csv, Chinese American Service League - Chinese American Service League,2141 S Tan Ct ,,7910418,,Child Care,EXTENDED DAY,,,,,,,,,,,,,,,,,,,,,,,
65,CPS_Early_Childhood_Portal_scrape.csv, First Church of Love And Faith - First Church of Love & Faith Annex,2141 W 79th St ,,2246800,,Child Care,EXTENDED DAY,,,,,,,,,,,,,,,,,,,,,,,
66,CPS_Early_Childhood_Portal_scrape.csv, El Hogar del Nino/Cuidar - El Hogar del Nino/Cuidar- California,2325 S California Ave ,,5231629,,Child Care,EXTENDED DAY,,,,,,,,,,,,,,,,,,,,,,,
67,CPS_Early_Childhood_Portal_scrape.csv, El Hogar del Nino/Cuidar - El Hogar del Nino/Cuidar- California,2325 S California Ave ,,5231629,,Child Care,EXTENDED DAY,,,,,,,,,,,,,,,,,,,,,,,
68,CPS_Early_Childhood_Portal_scrape.csv, Henry Booth House - Bernard Gentry,2326 S Dearborn St ,,8428557,,Child Care,EXTENDED DAY,,,,,,,,,,,,,,,,,,,,,,,
69,CPS_Early_Childhood_Portal_scrape.csv, Henry Booth House - Bernard Gentry,2326 S Dearborn St ,,8428557,,Child Care,EXTENDED DAY,,,,,,,,,,,,,,,,,,,,,,,
70,CPS_Early_Childhood_Portal_scrape.csv, Chicago State University - Kenyatta's Day Care,2334 E 75th ,,2213777,,Child Care,EXTENDED DAY,,,,,,,,,,,,,,,,,,,,,,,
71,CPS_Early_Childhood_Portal_scrape.csv, Henry Booth House - Hillard House / Henry Booth,2401 S Wabash Ave ,,7919710,,Child Care,EXTENDED DAY,,,,,,,,,,,,,,,,,,,,,,,
72,CPS_Early_Childhood_Portal_scrape.csv, Catholic Charities of the Archdiocese of Chicago - Our Lady of Tepeyac,2414 S Albany Ave ,,2775888,,Child Care,EXTENDED DAY,,,,,,,,,,,,,,,,,,,,,,,
73,CPS_Early_Childhood_Portal_scrape.csv, Catholic Charities of the Archdiocese of Chicago - Our Lady of Tepeyac,2414 S Albany Ave ,,2775888,,Child Care,EXTENDED DAY,,,,,,,,,,,,,,,,,,,,,,,
74,CPS_Early_Childhood_Portal_scrape.csv, YMCA of Metropolitan Chicago - High Ridge YMCA,2424 W Touhy Ave ,,2628300,,Child Care,EXTENDED DAY,,,,,,,,,,,,,,,,,,,,,,,
75,CPS_Early_Childhood_Portal_scrape.csv, El Valor - Carlos Cantu,2434 S Kildare Ave ,,,,Child Care,EXTENDED DAY,,,,,,,,,,,,,,,,,,,,,,,
76,CPS_Early_Childhood_Portal_scrape.csv, El Valor - Carlos Cantu,2434 S Kildare Ave ,,,,Child Care,EXTENDED DAY,,,,,,,,,,,,,,,,,,,,,,,
77,CPS_Early_Childhood_Portal_scrape.csv, Christopher House - Christopher House - Greenview,2507 N Greenview Ave ,,4721083,,Child Care,EXTENDED DAY,,,,,,,,,,,,,,,,,,,,,,,
78,CPS_Early_Childhood_Portal_scrape.csv, Christopher House - Christopher House - Logan Square,2610 N Francisco Ave ,,2354073,,Child Care,EXTENDED DAY,,,,,,,,,,,,,,,,,,,,,,,
79,CPS_Early_Childhood_Portal_scrape.csv, St. Augustine College - St. Augustine - Nayarit,2610 W 25th Pl ,,8783641,,Child Care,EXTENDED DAY,,,,,,,,,,,,,,,,,,,,,,,
80,CPS_Early_Childhood_Portal_scrape.csv, St. Augustine College - St. Augustine - Nayarit,2610 W 25th Pl ,,8783641,,Child Care,EXTENDED DAY,,,,,,,,,,,,,,,,,,,,,,,
81,CPS_Early_Childhood_Portal_scrape.csv, YMCA of Metropolitan Chicago - Rauner,2700 S Western Ave ,,8473115,,Child Care,EXTENDED DAY,,,,,,,,,,,,,,,,,,,,,,,
82,CPS_Early_Childhood_Portal_scrape.csv, YMCA of Metropolitan Chicago - Rauner,2700 S Western Ave ,,8473115,,Child Care,EXTENDED DAY,,,,,,,,,,,,,,,,,,,,,,,
83,CPS_Early_Childhood_Portal_scrape.csv, YMCA of Metropolitan Chicago - YMCA - Bowen High School,2710 E 89th St ,,9330166,,Child Care,EXTENDED DAY,,,,,,,,,,,,,,,,,,,,,,,
84,CPS_Early_Childhood_Portal_scrape.csv, Easter Seals Society of Metropolitan Chicago - The Keeper's Inst.,2718 W 59th St ,,,,Child Care,EXTENDED DAY,,,,,,,,,,,,,,,,,,,,,,,
85,CPS_Early_Childhood_Portal_scrape.csv, El Valor - Centro Infantil(Puerto Rican Comm),2739 W Division St ,,3428866,,Child Care,EXTENDED DAY,,,,,,,,,,,,,,,,,,,,,,,
86,CPS_Early_Childhood_Portal_scrape.csv, Mary Crane League - Mary Crane - West,2820 N Leavitt St ,,3485528,,Child Care,EXTENDED DAY,,,,,,,,,,,,,,,,,,,,,,,
87,CPS_Early_Childhood_Portal_scrape.csv, Henry Booth House - Family Service Center / Henry Booth,2850 S Michigan Ave ,,9492151,,Child Care,EXTENDED DAY,,,,,,,,,,,,,,,,,,,,,,,
88,CPS_Early_Childhood_Portal_scrape.csv, Mary Crane League - Mary Crane - North,2905 N Leavitt St ,,9753322,,Child Care,EXTENDED DAY,,,,,,,,,,,,,,,,,,,,,,,
89,CPS_Early_Childhood_Portal_scrape.csv, Henry Booth House - Near South / Henry Booth,2929 S Wabash Ave ,,7910424,,Child Care,EXTENDED DAY,,,,,,,,,,,,,,,,,,,,,,,
90,CPS_Early_Childhood_Portal_scrape.csv, Carole Robertson Center For Learning - Carole Robertson Center 2929,2929 W 19th St ,,5211600,,Child Care,EXTENDED DAY,,,,,,,,,,,,,,,,,,,,,,,
91,CPS_Early_Childhood_Portal_scrape.csv, Carole Robertson Center For Learning - Carole Robertson Center 2929,2929 W 19th St ,,5211600,,Child Care,EXTENDED DAY,,,,,,,,,,,,,,,,,,,,,,,
92,CPS_Early_Childhood_Portal_scrape.csv, Boys and Girls Clubs of Chicago - R.E. Woods,2950 W 25th St ,,8475172,,Child Care,EXTENDED DAY,,,,,,,,,,,,,,,,,,,,,,,
93,CPS_Early_Childhood_Portal_scrape.csv, Boys and Girls Clubs of Chicago - R.E. Woods,2950 W 25th St ,,8475172,,Child Care,EXTENDED DAY,,,,,,,,,,,,,,,,,,,,,,,
94,CPS_Early_Childhood_Portal_scrape.csv, Mary Crane League - Mary Crane - East,2974 N Clybourn Ave ,,3485528,,Child Care,EXTENDED DAY,,,,,,,,,,,,,,,,,,,,,,,
95,CPS_Early_Childhood_Portal_scrape.csv, El Valor - Young Scholars Dev. Ins,3038 W 59th St ,,9181944,,Child Care,EXTENDED DAY,,,,,,,,,,,,,,,,,,,,,,,
96,CPS_Early_Childhood_Portal_scrape.csv, YMCA of Metropolitan Chicago - South Chicago YMCA,3039 E 91st St ,,7219100,,Child Care,EXTENDED DAY,,,,,,,,,,,,,,,,,,,,,,,
97,CPS_Early_Childhood_Portal_scrape.csv, El Valor - Rey Gonzalez Children & Family Center,3050 E 92nd St ,,7219311,,Child Care,EXTENDED DAY,,,,,,,,,,,,,,,,,,,,,,,
98,CPS_Early_Childhood_Portal_scrape.csv, Bethel New Life - Lake and Pulaski,316 N Pulaski Rd ,,2653830,,Child Care,EXTENDED DAY,,,,,,,,,,,,,,,,,,,,,,,
99,CPS_Early_Childhood_Portal_scrape.csv, ChildServ - FSS of Lawndale,3210 W Arthington St ,,8677370,,Child Care,EXTENDED DAY,,,,,,,,,,,,,,,,,,,,,,,
100,CPS_Early_Childhood_Portal_scrape.csv, ChildServ - FSS of Lawndale,3210 W Arthington St ,,8677370,,Child Care,EXTENDED DAY,,,,,,,,,,,,,,,,,,,,,,,
101,CPS_Early_Childhood_Portal_scrape.csv, Metropolitan Family Services - Midway Children's Center (Chicago Lawn),3215 W 63rd St ,,8842350,,Child Care,EXTENDED DAY,,,,,,,,,,,,,,,,,,,,,,,
102,CPS_Early_Childhood_Portal_scrape.csv, Chicago Youth Centers - Centro Nuestro / CYC,3222 W Division Ave ,,4893157,,Child Care,EXTENDED DAY,,,,,,,,,,,,,,,,,,,,,,,
103,CPS_Early_Childhood_Portal_scrape.csv, Metropolitan Family Services - North Children's Center,3249 N Central Ave ,,3713700,,Child Care,EXTENDED DAY,,,,,,,,,,,,,,,,,,,,,,,
104,CPS_Early_Childhood_Portal_scrape.csv, Christopher House - Christoper House - Logan Square,3255 W Altgeld St ,,2354073,,Child Care,EXTENDED DAY,,,,,,,,,,,,,,,,,,,,,,,
105,CPS_Early_Childhood_Portal_scrape.csv, Chicago State University - Professional Playhouse,338 E 103rd ,,5680728,,Child Care,EXTENDED DAY,,,,,,,,,,,,,,,,,,,,,,,
106,CPS_Early_Childhood_Portal_scrape.csv, Chicago State University - Professional Playhouse,338 E 103rd ,,5680728,,Child Care,EXTENDED DAY,,,,,,,,,,,,,,,,,,,,,,,
107,CPS_Early_Childhood_Portal_scrape.csv, Albany Park Community Center - Albany Park Day Care - Ainslie,3401 W Ainslie St ,,5395907,,Child Care,EXTENDED DAY,,,,,,,,,,,,,,,,,,,,,,,
108,CPS_Early_Childhood_Portal_scrape.csv, St. Augustine College - St. Augustine - Flamboyan,3401 W McLean Ave ,,2763423,,Child Care,EXTENDED DAY,,,,,,,,,,,,,,,,,,,,,,,
109,CPS_Early_Childhood_Portal_scrape.csv, Chicago Youth Centers - ABC,3415 W 13th Pl ,,,,Child Care,EXTENDED DAY,,,,,,,,,,,,,,,,,,,,,,,
110,CPS_Early_Childhood_Portal_scrape.csv, Chicago Youth Centers - ABC,3415 W 13th Pl ,,,,Child Care,EXTENDED DAY,,,,,,,,,,,,,,,,,,,,,,,
111,CPS_Early_Childhood_Portal_scrape.csv, YMCA of Metropolitan Chicago - North Lawndale YMCA,3449 W Arthington St ,,6380773,,Child Care,EXTENDED DAY,,,,,,,,,,,,,,,,,,,,,,,
112,CPS_Early_Childhood_Portal_scrape.csv, YMCA of Metropolitan Chicago - North Lawndale YMCA,3449 W Arthington St ,,6380773,,Child Care,EXTENDED DAY,,,,,,,,,,,,,,,,,,,,,,,
113,CPS_Early_Childhood_Portal_scrape.csv, El Valor - Teddy Bear 2 Columbus,3473 W Columbus ,,,,Child Care,EXTENDED DAY,,,,,,,,,,,,,,,,,,,,,,,
114,CPS_Early_Childhood_Portal_scrape.csv, Centers For New Horizons - Ida B. Wells Learning Center,3601 S Rhodes St ,,3733640,,Child Care,EXTENDED DAY,,,,,,,,,,,,,,,,,,,,,,,
115,CPS_Early_Childhood_Portal_scrape.csv, Firman Community Services - Firman House West,37 W 47th St ,,3733400,,Child Care,EXTENDED DAY,,,,,,,,,,,,,,,,,,,,,,,
116,CPS_Early_Childhood_Portal_scrape.csv, Carole Robertson Center For Learning - Carole Robertson Center- Ogden 3701,3701 W Ogden Ave ,,5228400,,Child Care,EXTENDED DAY,,,,,,,,,,,,,,,,,,,,,,,
117,CPS_Early_Childhood_Portal_scrape.csv, Carole Robertson Center For Learning - Carole Robertson Center- Ogden 3701,3701 W Ogden Ave ,,5228400,,Child Care,EXTENDED DAY,,,,,,,,,,,,,,,,,,,,,,,
118,CPS_Early_Childhood_Portal_scrape.csv, Ada S. McKinley Community Services - McKinley - St. Thomas,3801 S Wabash Ave ,,2850617,,Child Care,EXTENDED DAY,,,,,,,,,,,,,,,,,,,,,,,
119,CPS_Early_Childhood_Portal_scrape.csv, Centers For New Horizons - Edison L. Hoard Learning Center,3901 S State St ,,5362187,,Child Care,EXTENDED DAY,,,,,,,,,,,,,,,,,,,,,,,
120,CPS_Early_Childhood_Portal_scrape.csv, Easter Seals Society of Metropolitan Chicago - It Takes a Village,4000 W Division St ,,,,Child Care,EXTENDED DAY,,,,,,,,,,,,,,,,,,,,,,,
121,CPS_Early_Childhood_Portal_scrape.csv, Grant Creative Learning Center - Grant Day Care Center,4025 S Drexel St ,,2858440,,Child Care,EXTENDED DAY,,,,,,,,,,,,,,,,,,,,,,,
122,CPS_Early_Childhood_Portal_scrape.csv, Salvation Army - New Hope / Salvation Army,4255 W Division St ,,7224908,,Child Care,EXTENDED DAY,,,,,,,,,,,,,,,,,,,,,,,
123,CPS_Early_Childhood_Portal_scrape.csv, Korean American Community Services - Korean American Community Services,4300 N California Ave ,,5838281,,Child Care,EXTENDED DAY,,,,,,,,,,,,,,,,,,,,,,,
124,CPS_Early_Childhood_Portal_scrape.csv, Centers For New Horizons - Effie Ellis,4301 S Cottage Grove Ave ,,,,Child Care,EXTENDED DAY,,,,,,,,,,,,,,,,,,,,,,,
125,CPS_Early_Childhood_Portal_scrape.csv, Ada S. McKinley Community Services - Maggie Drummond Day Care,4301 S Wabash Ave ,,3738200,,Child Care,EXTENDED DAY,,,,,,,,,,,,,,,,,,,,,,,
126,CPS_Early_Childhood_Portal_scrape.csv, Abraham Lincoln Centre - Lincoln - King,4314 S Cottage Grove Ave ,,7472310,,Child Care,EXTENDED DAY,,,,,,,,,,,,,,,,,,,,,,,
127,CPS_Early_Childhood_Portal_scrape.csv, Hull House Association - Leclaire-Ryder Day Care / Hull House,4410 S Laporte Ave ,,7675170,,Child Care,EXTENDED DAY,,,,,,,,,,,,,,,,,,,,,,,
128,CPS_Early_Childhood_Portal_scrape.csv, El Valor - Kiddy Kare Learning Ctr,4444 S Kedzie Ave ,,2476642,,Child Care,EXTENDED DAY,,,,,,,,,,,,,,,,,,,,,,,
129,CPS_Early_Childhood_Portal_scrape.csv, Hull House Association - Uptown West / Hull House,4520 N Beacon St ,,5613500,,Child Care,EXTENDED DAY,,,,,,,,,,,,,,,,,,,,,,,
130,CPS_Early_Childhood_Portal_scrape.csv, St. Paul Church of God - Chaney Ford Child Care Center,4526 S Wabash Ave ,,2858721,,Child Care,EXTENDED DAY,,,,,,,,,,,,,,,,,,,,,,,
131,CPS_Early_Childhood_Portal_scrape.csv, Chicago Youth Centers - Roseland / CYC,461 E 111th St ,,4684405,,Child Care,EXTENDED DAY,,,,,,,,,,,,,,,,,,,,,,,
132,CPS_Early_Childhood_Portal_scrape.csv, Chicago Youth Centers - Roseland / CYC,461 E 111th St ,,4684405,,Child Care,EXTENDED DAY,,,,,,,,,,,,,,,,,,,,,,,
133,CPS_Early_Childhood_Portal_scrape.csv, Home of Life Community Dev. Corp. - Home of Life Just For You,4647 W Washington Blvd ,,6268655,,Child Care,EXTENDED DAY,,,,,,,,,,,,,,,,,,,,,,,
134,CPS_Early_Childhood_Portal_scrape.csv, Home of Life Community Dev. Corp. - Home of Life Community Development,4650 W Madison St ,,6268655,,Child Care,EXTENDED DAY,,,,,,,,,,,,,,,,,,,,,,,
135,CPS_Early_Childhood_Portal_scrape.csv, Christopher House - Christopher House - Uptown,4701 N Winthrop Ave ,,7694540,,Child Care,EXTENDED DAY,,,,,,,,,,,,,,,,,,,,,,,
136,CPS_Early_Childhood_Portal_scrape.csv, Hull House Association - Lincoln Square / Hull House,4754 N Leavitt St ,,8788651,,Child Care,EXTENDED DAY,,,,,,,,,,,,,,,,,,,,,,,
137,CPS_Early_Childhood_Portal_scrape.csv, Catholic Charities of the Archdiocese of Chicago - St. Joseph,4800 S Paulina St ,,9272524,,Child Care,EXTENDED DAY,,,,,,,,,,,,,,,,,,,,,,,
138,CPS_Early_Childhood_Portal_scrape.csv, Lutheran Social Services of Illinois - Winthrop Children's Center / LSSI,4848 N Winthrop Ave ,,8783210,,Child Care,EXTENDED DAY,,,,,,,,,,,,,,,,,,,,,,,
139,CPS_Early_Childhood_Portal_scrape.csv, Firman Community Services - Firman House East,4910 S Dr. Martin Luther King Dr ,,3732083,,Child Care,EXTENDED DAY,,,,,,,,,,,,,,,,,,,,,,,
140,CPS_Early_Childhood_Portal_scrape.csv, Healing Temple - Healing Temple,4941 W Chicago Ave ,,2876964,,Child Care,EXTENDED DAY,,,,,,,,,,,,,,,,,,,,,,,
141,CPS_Early_Childhood_Portal_scrape.csv, Appeal for Charities and Goodwill - Appeal for Charities,50 W 71st St ,,6515400,,Child Care,EXTENDED DAY,,,,,,,,,,,,,,,,,,,,,,,
142,CPS_Early_Childhood_Portal_scrape.csv, Salvation Army - Columbus Park / Salvation Army,500 S Central Ave ,,9214162,,Child Care,EXTENDED DAY,,,,,,,,,,,,,,,,,,,,,,,
143,CPS_Early_Childhood_Portal_scrape.csv," Douglass-Tubman Youth Ministries,Inc. - Douglass-Tubman Child Development Center",5010 W Chicago Ave ,,6266581,,Child Care,EXTENDED DAY,,,,,,,,,,,,,,,,,,,,,,,
144,CPS_Early_Childhood_Portal_scrape.csv, Wayman Day Care Center - Wayman Day Care,511 W Elm St ,,9432120,,Child Care,EXTENDED DAY,,,,,,,,,,,,,,,,,,,,,,,
145,CPS_Early_Childhood_Portal_scrape.csv, Albany Park Community Center - Albany Park Head Start Center-Kimball,5121 N Kimball Ave ,,5095657,,Child Care,EXTENDED DAY,,,,,,,,,,,,,,,,,,,,,,,
146,CPS_Early_Childhood_Portal_scrape.csv, El Valor - Teddy Bear 5 Pulaski,5160 S Pulaski RD ,,,,Child Care,EXTENDED DAY,,,,,,,,,,,,,,,,,,,,,,,
147,CPS_Early_Childhood_Portal_scrape.csv, Trinity United Church of Christ - Trinity United,532 W 95th St ,,4883511,,Child Care,EXTENDED DAY,,,,,,,,,,,,,,,,,,,,,,,
148,CPS_Early_Childhood_Portal_scrape.csv, Catholic Charities of the Archdiocese of Chicago - Grace Mission,5332 S Western Ave ,,4761990,,Child Care,EXTENDED DAY,,,,,,,,,,,,,,,,,,,,,,,
149,CPS_Early_Childhood_Portal_scrape.csv, Firman Community Services - Firman House South,5401 S Wentworth Ave ,,4513400,,Child Care,EXTENDED DAY,,,,,,,,,,,,,,,,,,,,,,,
150,CPS_Early_Childhood_Portal_scrape.csv, Onward Neighborhood House - Belmont-Cragin,5423 W Diversey ,,,,Child Care,EXTENDED DAY,,,,,,,,,,,,,,,,,,,,,,,
151,CPS_Early_Childhood_Portal_scrape.csv, Onward Neighborhood House - Tiny Town for Tots,5654 W Division St ,,,,Child Care,EXTENDED DAY,,,,,,,,,,,,,,,,,,,,,,,
152,CPS_Early_Childhood_Portal_scrape.csv, Marcy Newberry Association - St. John Greater Holy Temple,5701 W Midway Park ,,9480094,,Child Care,EXTENDED DAY,,,,,,,,,,,,,,,,,,,,,,,
153,CPS_Early_Childhood_Portal_scrape.csv, El Hogar del Nino/Cuidar - Blanca Alatorre,5738 S KENNETH AVE ,,,,Child Care,EXTENDED DAY,,,,,,,,,,,,,,,,,,,,,,,
154,CPS_Early_Childhood_Portal_scrape.csv," Trinity Resources Unlimited, Inc. - Hope for Youth",5900 W Iowa St ,,6260323,,Child Care,EXTENDED DAY,,,,,,,,,,,,,,,,,,,,,,,
155,CPS_Early_Childhood_Portal_scrape.csv, El Valor - Little Learners,5923 W 63rd St ,,5815541,,Child Care,EXTENDED DAY,,,,,,,,,,,,,,,,,,,,,,,
156,CPS_Early_Childhood_Portal_scrape.csv, Onward Neighborhood House - Onward Neighborhood House,600 N Leavitt St ,,6666726,,Child Care,EXTENDED DAY,,,,,,,,,,,,,,,,,,,,,,,
157,CPS_Early_Childhood_Portal_scrape.csv," Heartland Alliance for Human Needs & Rights - Heartland Human Care Services, Inc",615 W Wellington Ave ,,,,Child Care,EXTENDED DAY,,,,,,,,,,,,,,,,,,,,,,,
158,CPS_Early_Childhood_Portal_scrape.csv, Centers For New Horizons - Washington Park South Learning Center,6225 S Wabash Ave ,,6672065,,Child Care,EXTENDED DAY,,,,,,,,,,,,,,,,,,,,,,,
159,CPS_Early_Childhood_Portal_scrape.csv, Boys and Girls Clubs of Chicago - Yancey,6245 S Wabash Ave ,,3634733,,Child Care,EXTENDED DAY,,,,,,,,,,,,,,,,,,,,,,,
160,CPS_Early_Childhood_Portal_scrape.csv, El Valor - Kidz Colony,6287 S Archer Ave ,,7678522,,Child Care,EXTENDED DAY,,,,,,,,,,,,,,,,,,,,,,,
161,CPS_Early_Childhood_Portal_scrape.csv, YMCA of Metropolitan Chicago - South Side YMCA,6330 S Stony Island Ave ,,9470700,,Child Care,EXTENDED DAY,,,,,,,,,,,,,,,,,,,,,,,
162,CPS_Early_Childhood_Portal_scrape.csv, El Valor - Teddy Bear 3 Pulaski,6401 S Pulaski RD ,,,,Child Care,EXTENDED DAY,,,,,,,,,,,,,,,,,,,,,,,
163,CPS_Early_Childhood_Portal_scrape.csv, Woodlawn A.M.E. Church - Woodlawn A.M.E.,6456 S Evans Ave ,,6671402,,Child Care,EXTENDED DAY,,,,,,,,,,,,,,,,,,,,,,,
164,CPS_Early_Childhood_Portal_scrape.csv, Board Trustees-City Colleges of Chicago - Kennedy-King College,6800 S Wentworth Ave ,,5533475,,Child Care,EXTENDED DAY,,,,,,,,,,,,,,,,,,,,,,,
165,CPS_Early_Childhood_Portal_scrape.csv, Family Rescue - Ridgeland Head Start,6824 S Ridgeland Ave ,,6671073,,Child Care,EXTENDED DAY,,,,,,,,,,,,,,,,,,,,,,,
166,CPS_Early_Childhood_Portal_scrape.csv, Trinity United Church of Christ - Dr. Denton J. Brooks Center,6921 S Stony Island Ave ,,9552818,,Child Care,EXTENDED DAY,,,,,,,,,,,,,,,,,,,,,,,
167,CPS_Early_Childhood_Portal_scrape.csv, Abraham Lincoln Centre - Lincoln - Roseland,7 E 119th St ,,2647632,,Child Care,EXTENDED DAY,,,,,,,,,,,,,,,,,,,,,,,
168,CPS_Early_Childhood_Portal_scrape.csv, Abraham Lincoln Centre - Lincoln - Roseland,7 E 119th St ,,2647632,,Child Care,EXTENDED DAY,,,,,,,,,,,,,,,,,,,,,,,
169,CPS_Early_Childhood_Portal_scrape.csv, YMCA of Metropolitan Chicago - Garfield Head Start/Child Developmental Center- YMCA,7 N Homan Ave ,,2653900,,Child Care,EXTENDED DAY,,,,,,,,,,,,,,,,,,,,,,,
170,CPS_Early_Childhood_Portal_scrape.csv, Christopher House - Christopher House - Rogers Park,7059 N Greenview Ave ,,2745477,,Child Care,EXTENDED DAY,,,,,,,,,,,,,,,,,,,,,,,
171,CPS_Early_Childhood_Portal_scrape.csv, Ada S. McKinley Community Services - Little Hands,7146 S Ashland Ave ,,,,Child Care,EXTENDED DAY,,,,,,,,,,,,,,,,,,,,,,,
172,CPS_Early_Childhood_Portal_scrape.csv, Ada S. McKinley Community Services - McKinley - Howard,7222 S Exchange Ave ,,2219711,,Child Care,EXTENDED DAY,,,,,,,,,,,,,,,,,,,,,,,
173,CPS_Early_Childhood_Portal_scrape.csv, Hull House Association - Orr High School non-cys funded,730 N Pulaski Rd ,,8261090,,Child Care,EXTENDED DAY,,,,,,,,,,,,,,,,,,,,,,,
174,CPS_Early_Childhood_Portal_scrape.csv, South Shore United Methodist - South Shore United,7350 S Jeffery Blvd ,,3244430,,Child Care,EXTENDED DAY,,,,,,,,,,,,,,,,,,,,,,,
175,CPS_Early_Childhood_Portal_scrape.csv, Chicago Commons Association - Nia Family Center,744 N Monticello Ave ,,8266971,,Child Care,EXTENDED DAY,,,,,,,,,,,,,,,,,,,,,,,
176,CPS_Early_Childhood_Portal_scrape.csv, Howard Area Community Center - Howard Area Community Center,7510 N Ashland Ave ,,7647610,,Child Care,EXTENDED DAY,,,,,,,,,,,,,,,,,,,,,,,
177,CPS_Early_Childhood_Portal_scrape.csv, Chicago Youth Centers - Rebecca K. Crown / CYC,7601 S Phillips Ave ,,6481550,,Child Care,EXTENDED DAY,,,,,,,,,,,,,,,,,,,,,,,
178,CPS_Early_Childhood_Portal_scrape.csv, Howard Area Community Center - Howard Area,7638 N Paulina Ave ,,3813652,,Child Care,EXTENDED DAY,,,,,,,,,,,,,,,,,,,,,,,
179,CPS_Early_Childhood_Portal_scrape.csv, ChildServ - Englewood,7928 S Ashland Ave ,,,,Child Care,EXTENDED DAY,,,,,,,,,,,,,,,,,,,,,,,
180,CPS_Early_Childhood_Portal_scrape.csv, Ada S. McKinley Community Services - McKinley - Wright Renaissance,7939 S Western Ave ,,4768805,,Child Care,EXTENDED DAY,,,,,,,,,,,,,,,,,,,,,,,
181,CPS_Early_Childhood_Portal_scrape.csv, Chicago State University - Tiny Tots Villa,8128 S Dr. Martin Luther King Dr ,,4836251,,Child Care,EXTENDED DAY,,,,,,,,,,,,,,,,,,,,,,,
182,CPS_Early_Childhood_Portal_scrape.csv, Henry Booth House - New Pisgah,8130 S Racine Ave ,,8735392,,Child Care,EXTENDED DAY,,,,,,,,,,,,,,,,,,,,,,,
183,CPS_Early_Childhood_Portal_scrape.csv, Human Resources Development Institute - Human Resources Development Institute,8151 S Western Ave ,,8631145,,Child Care,EXTENDED DAY,,,,,,,,,,,,,,,,,,,,,,,
184,CPS_Early_Childhood_Portal_scrape.csv, South Central Community Services - South Central Community Services,8316 S Ellis Ave ,,4830900,,Child Care,EXTENDED DAY,,,,,,,,,,,,,,,,,,,,,,,
185,CPS_Early_Childhood_Portal_scrape.csv, Marcy Newberry Association - South Harper Montessori,8358 S Stony Island Ave ,,7340375,,Child Care,EXTENDED DAY,,,,,,,,,,,,,,,,,,,,,,,
186,CPS_Early_Childhood_Portal_scrape.csv, Christopher House - Christopher House - Lakeshore,850 W Eastwood Ave ,,2719403,,Child Care,EXTENDED DAY,,,,,,,,,,,,,,,,,,,,,,,
187,CPS_Early_Childhood_Portal_scrape.csv, Henry Booth House - North Kenwood Day Care Center,857 E Pershing Rd ,,2682223,,Child Care,EXTENDED DAY,,,,,,,,,,,,,,,,,,,,,,,
188,CPS_Early_Childhood_Portal_scrape.csv, Dorothy Sutton Branch - Dorothy Sutton Branch,8601 S State St ,,7234445,,Child Care,EXTENDED DAY,,,,,,,,,,,,,,,,,,,,,,,
189,CPS_Early_Childhood_Portal_scrape.csv, Catholic Charities of the Archdiocese of Chicago - St. Bronislava,8716 S Colfax Ave ,,9337676,,Child Care,EXTENDED DAY,,,,,,,,,,,,,,,,,,,,,,,
190,CPS_Early_Childhood_Portal_scrape.csv, Catholic Charities of the Archdiocese of Chicago - Our Lady of Guadalupe,9129 S Burley Ave ,,9785320,,Child Care,EXTENDED DAY,,,,,,,,,,,,,,,,,,,,,,,
191,CPS_Early_Childhood_Portal_scrape.csv, Haymarket Center - Haymarket Center,932 W Washington Blvd ,,2267984,,Child Care,EXTENDED DAY,,,,,,,,,,,,,,,,,,,,,,,
192,CPS_Early_Childhood_Portal_scrape.csv, Centers For New Horizons - Altgeld Gardens I,941 E 132nd Pl ,,4683055,,Child Care,EXTENDED DAY,,,,,,,,,,,,,,,,,,,,,,,
193,CPS_Early_Childhood_Portal_scrape.csv, Centers For New Horizons - Altgeld Gardens I,941 E 132nd Pl ,,4683055,,Child Care,EXTENDED DAY,,,,,,,,,,,,,,,,,,,,,,,
194,CPS_Early_Childhood_Portal_scrape.csv, The Woodlawn Organization - T.W.O. Early Child Development,950 E 61ST St ,,2885840,,Child Care,EXTENDED DAY,,,,,,,,,,,,,,,,,,,,,,,
195,CPS_Early_Childhood_Portal_scrape.csv, Human Resources Development Institute - Donna Randle,9634 S CHAPPEL AVE ,,,,Child Care,EXTENDED DAY,,,,,,,,,,,,,,,,,,,,,,,
196,CPS_Early_Childhood_Portal_scrape.csv, Chicago Youth Centers - Dorothy Gautreaux / CYC,975 E 132nd St ,,2911000,,Child Care,EXTENDED DAY,,,,,,,,,,,,,,,,,,,,,,,
197,CPS_Early_Childhood_Portal_scrape.csv, Chicago Youth Centers - Dorothy Gautreaux / CYC,975 E 132nd St ,,2911000,,Child Care,EXTENDED DAY,,,,,,,,,,,,,,,,,,,,,,,
198,CPS_Early_Childhood_Portal_scrape.csv, Joyner CPC,1315 S. Blue Island ,,5347903,,Child Parent Center,3-4 hours,,,,,,,,,,,,,,,,,,,,,,,
199,CPS_Early_Childhood_Portal_scrape.csv, Von Humboldt CPC,1345 N. Rockwell ,,5344668,,Child Parent Center,3-4 hours,,,,,,,,,,,,,,,,,,,,,,,
200,CPS_Early_Childhood_Portal_scrape.csv, Herzl CPC,1401 S. Hamlin ,,5341751,,Child Parent Center,3-4 hours,,,,,,,,,,,,,,,,,,,,,,,
201,CPS_Early_Childhood_Portal_scrape.csv, Herzl CPC,1401 S. Hamlin ,,5341751,,Child Parent Center,3-4 hours,,,,,,,,,,,,,,,,,,,,,,,
202,CPS_Early_Childhood_Portal_scrape.csv, Ferguson CPC,1420 N. Hudson ,,5348580,,Child Parent Center,3-4 hours,,,,,,,,,,,,,,,,,,,,,,,
203,CPS_Early_Childhood_Portal_scrape.csv, Parker CPC,328 W. 69Th ,,5353853,,Child Parent Center,3-4 hours,,,,,,,,,,,,,,,,,,,,,,,
204,CPS_Early_Childhood_Portal_scrape.csv, Delano CPC,3905 W. Wilcox ,,5346450,,Child Parent Center,3-4 hours,,,,,,,,,,,,,,,,,,,,,,,
205,CPS_Early_Childhood_Portal_scrape.csv, Hansberry CPC,4055 W. Arthington ,,5346931,,Child Parent Center,3-4 hours,,,,,,,,,,,,,,,,,,,,,,,
206,CPS_Early_Childhood_Portal_scrape.csv, Hansberry CPC,4055 W. Arthington ,,5346931,,Child Parent Center,3-4 hours,,,,,,,,,,,,,,,,,,,,,,,
207,CPS_Early_Childhood_Portal_scrape.csv, Cole CPC,412 S. Keeler ,,5346857,,Child Parent Center,3-4 hours,,,,,,,,,,,,,,,,,,,,,,,
208,CPS_Early_Childhood_Portal_scrape.csv, Woodson South CPC,4511 S. Evans Ave ,,5351822,,Child Parent Center,3-4 hours,,,,,,,,,,,,,,,,,,,,,,,
209,CPS_Early_Childhood_Portal_scrape.csv, Overton CPC,4935 S. Indiana ,,5351811,,Child Parent Center,3-4 hours,,,,,,,,,,,,,,,,,,,,,,,
210,CPS_Early_Childhood_Portal_scrape.csv, Beasley CPC,5165 S. State St ,,5351772,,Child Parent Center,3-4 hours,,,,,,,,,,,,,,,,,,,,,,,
211,CPS_Early_Childhood_Portal_scrape.csv, Dewey CPC,638 W. 54Th Pl. ,,5351671,,Child Parent Center,3-4 hours,,,,,,,,,,,,,,,,,,,,,,,
212,CPS_Early_Childhood_Portal_scrape.csv, Wheatley CPC,902 E. 133rd Pl ,,5355718,,Child Parent Center,3-4 hours,,,,,,,,,,,,,,,,,,,,,,,
213,CPS_Early_Childhood_Portal_scrape.csv, Wheatley CPC,902 E. 133rd Pl ,,5355718,,Child Parent Center,3-4 hours,,,,,,,,,,,,,,,,,,,,,,,
214,CPS_Early_Childhood_Portal_scrape.csv, V & J Day Care Center,1 E. 113th St. ,,7853940,,Community Partnerships,"8-11 Hours, varies by facility",,,,,,,,,,,,,,,,,,,,,,,
215,CPS_Early_Childhood_Portal_scrape.csv, Salvation Army Temple,1 N. Ogden ,,2262649,,Community Partnerships,"8-11 Hours, varies by facility",,,,,,,,,,,,,,,,,,,,,,,
216,CPS_Early_Childhood_Portal_scrape.csv, National Louis University-Dr. Effie O. Ellis Head Start,10 S. Kedzie ,,5339011,,Community Partnerships,"8-11 Hours, varies by facility",,,,,,,,,,,,,,,,,,,,,,,
217,CPS_Early_Childhood_Portal_scrape.csv, City Colleges Olive-Harvey CDC,10001 S. Woodlawn ,,2916315,,Community Partnerships,"8-11 Hours, varies by facility",,,,,,,,,,,,,,,,,,,,,,,
218,CPS_Early_Childhood_Portal_scrape.csv, Easter Seals - Gilchrist Marchman,1001 W. Roosevelt Rd ,,4927402,,Community Partnerships,"8-11 Hours, varies by facility",,,,,,,,,,,,,,,,,,,,,,,
219,CPS_Early_Childhood_Portal_scrape.csv, Hull House Association Edgewater/Uptown,1020 W. Bryn Mawr ,,4695626,,Community Partnerships,"8-11 Hours, varies by facility",,,,,,,,,,,,,,,,,,,,,,,
220,CPS_Early_Childhood_Portal_scrape.csv," Montessori Academy and Association, Inc. 2",10232 S. Halsted St. ,,2331100,,Community Partnerships,"8-11 Hours, varies by facility",,,,,,,,,,,,,,,,,,,,,,,
221,CPS_Early_Childhood_Portal_scrape.csv, Archdiocese of Chicago - St. Mary of the Lake,1026 W. Buena Ave. ,,2810018,,Community Partnerships,"8-11 Hours, varies by facility",,,,,,,,,,,,,,,,,,,,,,,
222,CPS_Early_Childhood_Portal_scrape.csv, Small Stride Academy,10317 S. Western ,,2390040,,Community Partnerships,"8-11 Hours, varies by facility",,,,,,,,,,,,,,,,,,,,,,,
223,CPS_Early_Childhood_Portal_scrape.csv, Loyola University Chicago,1052 W. Loyola Ave ,,5083440,,Community Partnerships,"8-11 Hours, varies by facility",,,,,,,,,,,,,,,,,,,,,,,
224,CPS_Early_Childhood_Portal_scrape.csv, Children?s Developmental Institute MP,10928 S. Halsted St. ,,9950600,,Community Partnerships,"8-11 Hours, varies by facility",,,,,,,,,,,,,,,,,,,,,,,
225,CPS_Early_Childhood_Portal_scrape.csv, Catholic Charities - Cordi-Marian,1100 S. May Street ,,6663787,,Community Partnerships,"8-11 Hours, varies by facility",,,,,,,,,,,,,,,,,,,,,,,
226,CPS_Early_Childhood_Portal_scrape.csv," Montessori Academy and Association, Inc. 1",11025 S. Halsted St. ,,4680033,,Community Partnerships,"8-11 Hours, varies by facility",,,,,,,,,,,,,,,,,,,,,,,
227,CPS_Early_Childhood_Portal_scrape.csv," Kids Count Too Daycare, Preschool and Kindergarten-Kids Count Too Daycare - Englewo",1106-1108 W. 63rd St. ,,4767714,,Community Partnerships,"8-11 Hours, varies by facility",,,,,,,,,,,,,,,,,,,,,,,
228,CPS_Early_Childhood_Portal_scrape.csv, Thresholds Mothers? Project,1110 W. Belmont ,,,,Community Partnerships,"8-11 Hours, varies by facility",,,,,,,,,,,,,,,,,,,,,,,
229,CPS_Early_Childhood_Portal_scrape.csv, North Kenwood/Oakland Charter,1119 E. 46th St. ,,5362399,,Community Partnerships,"8-11 Hours, varies by facility",,,,,,,,,,,,,,,,,,,,,,,
230,CPS_Early_Childhood_Portal_scrape.csv, Bethel New Life Molade CDC,1120 N. Lamon ,,6267760,,Community Partnerships,"8-11 Hours, varies by facility",,,,,,,,,,,,,,,,,,,,,,,
231,CPS_Early_Childhood_Portal_scrape.csv, LEARN Charter School,1132 S. Homan ,,8266330,,Community Partnerships,"8-11 Hours, varies by facility",,,,,,,,,,,,,,,,,,,,,,,
232,CPS_Early_Childhood_Portal_scrape.csv, Lots of Love Preschool Academy,1139 W. 79th St. ,,2091989,,Community Partnerships,"8-11 Hours, varies by facility",,,,,,,,,,,,,,,,,,,,,,,
233,CPS_Early_Childhood_Portal_scrape.csv, Ada S. McKinley Roseland,11410 S. Edbrooke ,,4681918,,Community Partnerships,"8-11 Hours, varies by facility",,,,,,,,,,,,,,,,,,,,,,,
234,CPS_Early_Childhood_Portal_scrape.csv, Imani Children's Academy,11443 S. Halsted ,,6609667,,Community Partnerships,"8-11 Hours, varies by facility",,,,,,,,,,,,,,,,,,,,,,,
235,CPS_Early_Childhood_Portal_scrape.csv, City Colleges of Chicago Truman CDC,1145 W. Wilson ,,9074741,,Community Partnerships,"8-11 Hours, varies by facility",,,,,,,,,,,,,,,,,,,,,,,
236,CPS_Early_Childhood_Portal_scrape.csv, Gingerbread House Daycare,11640 S. Wentworth ,,9284041,,Community Partnerships,"8-11 Hours, varies by facility",,,,,,,,,,,,,,,,,,,,,,,
237,CPS_Early_Childhood_Portal_scrape.csv, Chicago Urban Day School,1248 W. 69th Street ,,4833555,,Community Partnerships,"8-11 Hours, varies by facility",,,,,,,,,,,,,,,,,,,,,,,
238,CPS_Early_Childhood_Portal_scrape.csv, Stepping Stones Early Childhood Center,1300 E. 75th St. ,,4930000,,Community Partnerships,"8-11 Hours, varies by facility",,,,,,,,,,,,,,,,,,,,,,,
239,CPS_Early_Childhood_Portal_scrape.csv, First Congregational Church Day Care,1305 N. Hamlin ,,3848118,,Community Partnerships,"8-11 Hours, varies by facility",,,,,,,,,,,,,,,,,,,,,,,
240,CPS_Early_Childhood_Portal_scrape.csv, Marcy-Newberry - Fosco Park,1312 S. Racine ,,7466024,,Community Partnerships,"8-11 Hours, varies by facility",,,,,,,,,,,,,,,,,,,,,,,
241,CPS_Early_Childhood_Portal_scrape.csv," Kids Place II, Inc.",1318 West 95th St. ,,4456500,,Community Partnerships,"8-11 Hours, varies by facility",,,,,,,,,,,,,,,,,,,,,,,
242,CPS_Early_Childhood_Portal_scrape.csv, St. Augustine College - Canillitas,1333-45 W. Argyle ,,8783231,,Community Partnerships,"8-11 Hours, varies by facility",,,,,,,,,,,,,,,,,,,,,,,
243,CPS_Early_Childhood_Portal_scrape.csv, Casa Central - CSC Development Program,1343 N. California ,,6452300,,Community Partnerships,"8-11 Hours, varies by facility",,,,,,,,,,,,,,,,,,,,,,,
244,CPS_Early_Childhood_Portal_scrape.csv, Abraham Lincoln Center - Hope,1354 W. 61st St. ,,4715100,,Community Partnerships,"8-11 Hours, varies by facility",,,,,,,,,,,,,,,,,,,,,,,
245,CPS_Early_Childhood_Portal_scrape.csv, Northwestern University Settlement House,1400 W. Augusta Blvd. ,,2787471,,Community Partnerships,"8-11 Hours, varies by facility",,,,,,,,,,,,,,,,,,,,,,,
246,CPS_Early_Childhood_Portal_scrape.csv, Taylor - Day School Inc.,1414 W. 87th St ,,2392322,,Community Partnerships,"8-11 Hours, varies by facility",,,,,,,,,,,,,,,,,,,,,,,
247,CPS_Early_Childhood_Portal_scrape.csv, Little Kiddies Day Care,1447 W. Devon ,,4657702,,Community Partnerships,"8-11 Hours, varies by facility",,,,,,,,,,,,,,,,,,,,,,,
248,CPS_Early_Childhood_Portal_scrape.csv, Passages Charter School,1447 W. Montrose ,,5491052,,Community Partnerships,"8-11 Hours, varies by facility",,,,,,,,,,,,,,,,,,,,,,,
249,CPS_Early_Childhood_Portal_scrape.csv, Catholic Charities - Our Lady of Lourdes,1449 S. Keeler ,,5213126,,Community Partnerships,"8-11 Hours, varies by facility",,,,,,,,,,,,,,,,,,,,,,,
250,CPS_Early_Childhood_Portal_scrape.csv, Lutheran Social Services North Austin,1500 N. Mason ,,2371930,,Community Partnerships,"8-11 Hours, varies by facility",,,,,,,,,,,,,,,,,,,,,,,
251,CPS_Early_Childhood_Portal_scrape.csv, Chicago Youth Centers Centro Nuestro (Taylor),1501 N. Harding ,,2785837,,Community Partnerships,"8-11 Hours, varies by facility",,,,,,,,,,,,,,,,,,,,,,,
252,CPS_Early_Childhood_Portal_scrape.csv, Marcy-Newberry Marcy Center,1539 S. Springfield ,,7622300,,Community Partnerships,"8-11 Hours, varies by facility",,,,,,,,,,,,,,,,,,,,,,,
253,CPS_Early_Childhood_Portal_scrape.csv, Mary Crane Morse,1545 W. Morse ,,2621390,,Community Partnerships,"8-11 Hours, varies by facility",,,,,,,,,,,,,,,,,,,,,,,
254,CPS_Early_Childhood_Portal_scrape.csv," Early Child Care Services,Inc.",160 N. LaSalle N. 201 ,,8144782,,Community Partnerships,"8-11 Hours, varies by facility",,,,,,,,,,,,,,,,,,,,,,,
255,CPS_Early_Childhood_Portal_scrape.csv, Chicago Commons-Taylor Center For New Experiences,1633 N. Hamlin ,,2278551,,Community Partnerships,"8-11 Hours, varies by facility",,,,,,,,,,,,,,,,,,,,,,,
256,CPS_Early_Childhood_Portal_scrape.csv, Chicago Commons Paulo Freire,1653 W. 43rd Street ,,8266260,,Community Partnerships,"8-11 Hours, varies by facility",,,,,,,,,,,,,,,,,,,,,,,
257,CPS_Early_Childhood_Portal_scrape.csv, Children?s Home & Aid Englewood,1701 W. 63rd St. ,,,,Community Partnerships,"8-11 Hours, varies by facility",,,,,,,,,,,,,,,,,,,,,,,
258,CPS_Early_Childhood_Portal_scrape.csv, Erie Neighborhood House,1701 W. Superior ,,5635800,,Community Partnerships,"8-11 Hours, varies by facility",,,,,,,,,,,,,,,,,,,,,,,
259,CPS_Early_Childhood_Portal_scrape.csv, El Hogar del Ni?o New Loomis,1710-1718 S. Loomis ,,5630662,,Community Partnerships,"8-11 Hours, varies by facility",,,,,,,,,,,,,,,,,,,,,,,
260,CPS_Early_Childhood_Portal_scrape.csv, Kiddy Kare Preschools Little Tykes I,1711 W. 35th Street ,,2547710,,Community Partnerships,"8-11 Hours, varies by facility",,,,,,,,,,,,,,,,,,,,,,,
261,CPS_Early_Childhood_Portal_scrape.csv, El Hogar del Ni?o Loomis Preschool,1718 S. Loomis ,,5630662,,Community Partnerships,"8-11 Hours, varies by facility",,,,,,,,,,,,,,,,,,,,,,,
262,CPS_Early_Childhood_Portal_scrape.csv, Kiddy Kare Preschools Little Tykes II,1723 W. 35th Street ,,5791791,,Community Partnerships,"8-11 Hours, varies by facility",,,,,,,,,,,,,,,,,,,,,,,
263,CPS_Early_Childhood_Portal_scrape.csv, Lutheran Social Services Rogers Park,1754 W. Devon ,,2623366,,Community Partnerships,"8-11 Hours, varies by facility",,,,,,,,,,,,,,,,,,,,,,,
264,CPS_Early_Childhood_Portal_scrape.csv, Children?s Place Family Center,1800 N. Humboldt Blvd. ,,,,Community Partnerships,"8-11 Hours, varies by facility",,,,,,,,,,,,,,,,,,,,,,,
265,CPS_Early_Childhood_Portal_scrape.csv, Lutheran Day Nursery,1802 N. Fairfield ,,4864222,,Community Partnerships,"8-11 Hours, varies by facility",,,,,,,,,,,,,,,,,,,,,,,
266,CPS_Early_Childhood_Portal_scrape.csv, Chicago Commons Guadalupano,1814 S. Paulina ,,6663883,,Community Partnerships,"8-11 Hours, varies by facility",,,,,,,,,,,,,,,,,,,,,,,
267,CPS_Early_Childhood_Portal_scrape.csv, Chicago International Charter Basil Campus,1816 W. Garfield Blvd. ,,8630652,,Community Partnerships,"8-11 Hours, varies by facility",,,,,,,,,,,,,,,,,,,,,,,
268,CPS_Early_Childhood_Portal_scrape.csv, YMCA McCormick Tribune Preschool,1834 N. Lawndale ,,2352525,,Community Partnerships,"8-11 Hours, varies by facility",,,,,,,,,,,,,,,,,,,,,,,
269,CPS_Early_Childhood_Portal_scrape.csv, Wee Care Nursery School & Kindergarten,1845 E. 79th St. ,,2214442,,Community Partnerships,"8-11 Hours, varies by facility",,,,,,,,,,,,,,,,,,,,,,,
270,CPS_Early_Childhood_Portal_scrape.csv, City Colleges Malcolm X CDC,1900 W. Van Buren ,,8507176,,Community Partnerships,"8-11 Hours, varies by facility",,,,,,,,,,,,,,,,,,,,,,,
271,CPS_Early_Childhood_Portal_scrape.csv, Archdiocese of Chicago - St. Pius V,1919 S. Ashland ,,2261590,,Community Partnerships,"8-11 Hours, varies by facility",,,,,,,,,,,,,,,,,,,,,,,
272,CPS_Early_Childhood_Portal_scrape.csv, UIC Children?s Center II - West,1919 W. Taylor (m/c 525) Rm. 128 ,,4135326,,Community Partnerships,"8-11 Hours, varies by facility",,,,,,,,,,,,,,,,,,,,,,,
273,CPS_Early_Childhood_Portal_scrape.csv, Terry Town Vireva Nursery School,1935 W. 51st St. ,,9258417,,Community Partnerships,"8-11 Hours, varies by facility",,,,,,,,,,,,,,,,,,,,,,,
274,CPS_Early_Childhood_Portal_scrape.csv, El Valor Corporation-Guadalupe Reyes Children and Family Center,1951 W. 19th St. ,,9972021,,Community Partnerships,"8-11 Hours, varies by facility",,,,,,,,,,,,,,,,,,,,,,,
275,CPS_Early_Childhood_Portal_scrape.csv, New Zion Child Care Academy,1960 W. 13th St. ,,7331263,,Community Partnerships,"8-11 Hours, varies by facility",,,,,,,,,,,,,,,,,,,,,,,
276,CPS_Early_Childhood_Portal_scrape.csv, Loop Learning Center,2001 S. Michigan Ave. ,,2258828,,Community Partnerships,"8-11 Hours, varies by facility",,,,,,,,,,,,,,,,,,,,,,,
277,CPS_Early_Childhood_Portal_scrape.csv, North Avenue Day Nursery,2001 W. Pierce ,,3424499,,Community Partnerships,"8-11 Hours, varies by facility",,,,,,,,,,,,,,,,,,,,,,,
278,CPS_Early_Childhood_Portal_scrape.csv, Carole Robertson Center Roosevelt,2020 W. Roosevelt ,,2434881,,Community Partnerships,"8-11 Hours, varies by facility",,,,,,,,,,,,,,,,,,,,,,,
279,CPS_Early_Childhood_Portal_scrape.csv, Dorsey Developmental Institute I,2050 E. 93rd Street ,,3754300,,Community Partnerships,"8-11 Hours, varies by facility",,,,,,,,,,,,,,,,,,,,,,,
280,CPS_Early_Childhood_Portal_scrape.csv," Loren Children's Learning Center, Inc.",2106 E. 79th St. ,,3569400,,Community Partnerships,"8-11 Hours, varies by facility",,,,,,,,,,,,,,,,,,,,,,,
281,CPS_Early_Childhood_Portal_scrape.csv, Archdiocese of Chicago - St. Paul/ Our Lady of Vilna,2114 W. 22nd Pl. ,,8476078,,Community Partnerships,"8-11 Hours, varies by facility",,,,,,,,,,,,,,,,,,,,,,,
282,CPS_Early_Childhood_Portal_scrape.csv, Marillac House,212 S. Francisco ,,7227440,,Community Partnerships,"8-11 Hours, varies by facility",,,,,,,,,,,,,,,,,,,,,,,
283,CPS_Early_Childhood_Portal_scrape.csv, Chinese American Service League,2141 S. Tan Ct. ,,7910454,,Community Partnerships,"8-11 Hours, varies by facility",,,,,,,,,,,,,,,,,,,,,,,
284,CPS_Early_Childhood_Portal_scrape.csv, A Child's World Early Learning Center,2145 E. 83rd St. ,,9786598,,Community Partnerships,"8-11 Hours, varies by facility",,,,,,,,,,,,,,,,,,,,,,,
285,CPS_Early_Childhood_Portal_scrape.csv, St. Vincent DePaul Child Development,2145 N. Halsted ,,,,Community Partnerships,"8-11 Hours, varies by facility",,,,,,,,,,,,,,,,,,,,,,,
286,CPS_Early_Childhood_Portal_scrape.csv, Laurance Armour School,2150 W. Harrison St. ,,9426501,,Community Partnerships,"8-11 Hours, varies by facility",,,,,,,,,,,,,,,,,,,,,,,
287,CPS_Early_Childhood_Portal_scrape.csv," Precious Little One's Learning Center, Inc.",221 E. 51st St. ,,2859902,,Community Partnerships,"8-11 Hours, varies by facility",,,,,,,,,,,,,,,,,,,,,,,
288,CPS_Early_Childhood_Portal_scrape.csv, Archdiocese of Chicago - St. Ann,2211 W. 18th Pl. ,,8294153,,Community Partnerships,"8-11 Hours, varies by facility",,,,,,,,,,,,,,,,,,,,,,,
289,CPS_Early_Childhood_Portal_scrape.csv, Casa Central - Casa Infantil Child Development Program,2222 N. Kedzie Ave. ,,7721170,,Community Partnerships,"8-11 Hours, varies by facility",,,,,,,,,,,,,,,,,,,,,,,
290,CPS_Early_Childhood_Portal_scrape.csv, Ahadi Early Learning Center,2257 E. 71st St. ,,2517086,,Community Partnerships,"8-11 Hours, varies by facility",,,,,,,,,,,,,,,,,,,,,,,
291,CPS_Early_Childhood_Portal_scrape.csv, Love Learning Center,228 E. 61st Street ,,7520243,,Community Partnerships,"8-11 Hours, varies by facility",,,,,,,,,,,,,,,,,,,,,,,
292,CPS_Early_Childhood_Portal_scrape.csv, El Hogar Del Nino California,2325 S. California ,,,,Community Partnerships,"8-11 Hours, varies by facility",,,,,,,,,,,,,,,,,,,,,,,
293,CPS_Early_Childhood_Portal_scrape.csv, Henry Booth House - Gentry,2326 S. Dearborn ,,8428557,,Community Partnerships,"8-11 Hours, varies by facility",,,,,,,,,,,,,,,,,,,,,,,
294,CPS_Early_Childhood_Portal_scrape.csv, Kenyatta?s Day Care Center,2334 E. 75th Street ,,2213777,,Community Partnerships,"8-11 Hours, varies by facility",,,,,,,,,,,,,,,,,,,,,,,
295,CPS_Early_Childhood_Portal_scrape.csv, Ada S. McKinley Trumball Park,2400 E. 105th St ,,9785341,,Community Partnerships,"8-11 Hours, varies by facility",,,,,,,,,,,,,,,,,,,,,,,
296,CPS_Early_Childhood_Portal_scrape.csv, Henry Booth House Hilliard at Quinn Chapel,2401 S. Wabash ,,7919710,,Community Partnerships,"8-11 Hours, varies by facility",,,,,,,,,,,,,,,,,,,,,,,
297,CPS_Early_Childhood_Portal_scrape.csv, YMCA High Ridge,2424 W. Touhy ,,2628300,,Community Partnerships,"8-11 Hours, varies by facility",,,,,,,,,,,,,,,,,,,,,,,
298,CPS_Early_Childhood_Portal_scrape.csv, El Valor Corporation-Carlos Cantu Children and Family Centers,2434 S. Kildare ,,7219311,,Community Partnerships,"8-11 Hours, varies by facility",,,,,,,,,,,,,,,,,,,,,,,
299,CPS_Early_Childhood_Portal_scrape.csv," Wee Wee Center for Creative Learning, Inc.",2434 W. 71st St. ,,4710869,,Community Partnerships,"8-11 Hours, varies by facility",,,,,,,,,,,,,,,,,,,,,,,
300,CPS_Early_Childhood_Portal_scrape.csv, Archdiocese of Chicago - Our Lady of Grace,2446 N. Ridgeway Ave. ,,3420170,,Community Partnerships,"8-11 Hours, varies by facility",,,,,,,,,,,,,,,,,,,,,,,
301,CPS_Early_Childhood_Portal_scrape.csv, Mother?s Touch I,2501 W. 71st Street ,,4363177,,Community Partnerships,"8-11 Hours, varies by facility",,,,,,,,,,,,,,,,,,,,,,,
302,CPS_Early_Childhood_Portal_scrape.csv, Christopher House Greenview,2507 N. Greenview ,,4721083,,Community Partnerships,"8-11 Hours, varies by facility",,,,,,,,,,,,,,,,,,,,,,,
303,CPS_Early_Childhood_Portal_scrape.csv, Children?s Home & Aid Society Viva,2516 W. Division ,,2526313,,Community Partnerships,"8-11 Hours, varies by facility",,,,,,,,,,,,,,,,,,,,,,,
304,CPS_Early_Childhood_Portal_scrape.csv, Christopher House Logan Square,2610 N. Francisco ,,2354073,,Community Partnerships,"8-11 Hours, varies by facility",,,,,,,,,,,,,,,,,,,,,,,
305,CPS_Early_Childhood_Portal_scrape.csv, St. Augustine College Nayarit,2610 W. 25th Pl. ,,8783653,,Community Partnerships,"8-11 Hours, varies by facility",,,,,,,,,,,,,,,,,,,,,,,
306,CPS_Early_Childhood_Portal_scrape.csv, Archdiocese of Chicago - St. Agnes of Bohemia,2643 S. Central Park Ave. ,,5220143,,Community Partnerships,"8-11 Hours, varies by facility",,,,,,,,,,,,,,,,,,,,,,,
307,CPS_Early_Childhood_Portal_scrape.csv," Teddy Bear Nursery School, Inc. I",2649 W. 51st Street ,,4760700,,Community Partnerships,"8-11 Hours, varies by facility",,,,,,,,,,,,,,,,,,,,,,,
308,CPS_Early_Childhood_Portal_scrape.csv, Gads Hill Child Care Center,2653 W. Ogden ,,5211196,,Community Partnerships,"8-11 Hours, varies by facility",,,,,,,,,,,,,,,,,,,,,,,
309,CPS_Early_Childhood_Portal_scrape.csv, Little Kids Village Learning,2656 W. 71st St. ,,7764753,,Community Partnerships,"8-11 Hours, varies by facility",,,,,,,,,,,,,,,,,,,,,,,
310,CPS_Early_Childhood_Portal_scrape.csv, YMCA Rauner Family,2700 S. Western Ave. ,,5060130,,Community Partnerships,"8-11 Hours, varies by facility",,,,,,,,,,,,,,,,,,,,,,,
311,CPS_Early_Childhood_Portal_scrape.csv, Keeper?s Institute Infant/Child Care,2718 W. 59th St. ,,4348835,,Community Partnerships,"8-11 Hours, varies by facility",,,,,,,,,,,,,,,,,,,,,,,
312,CPS_Early_Childhood_Portal_scrape.csv, Mary Crane West,2820 N. Leavitt ,,3485528,,Community Partnerships,"8-11 Hours, varies by facility",,,,,,,,,,,,,,,,,,,,,,,
313,CPS_Early_Childhood_Portal_scrape.csv, Henry Booth House - Near South,2929 S. Wabash ,,7910424,,Community Partnerships,"8-11 Hours, varies by facility",,,,,,,,,,,,,,,,,,,,,,,
314,CPS_Early_Childhood_Portal_scrape.csv, Carole Robertson Center for Learning,2929 W. 19th St. ,,5211600,,Community Partnerships,"8-11 Hours, varies by facility",,,,,,,,,,,,,,,,,,,,,,,
315,CPS_Early_Childhood_Portal_scrape.csv, Dorsey Developmental Institute III,2938 E. 91st Street ,,9330053,,Community Partnerships,"8-11 Hours, varies by facility",,,,,,,,,,,,,,,,,,,,,,,
316,CPS_Early_Childhood_Portal_scrape.csv, Boys & Girls Clubs General R. E. Wood,2950 W. 25th Street ,,8475172,,Community Partnerships,"8-11 Hours, varies by facility",,,,,,,,,,,,,,,,,,,,,,,
317,CPS_Early_Childhood_Portal_scrape.csv, Mary Crane Center East,2974 N. Clybourn ,,3485528,,Community Partnerships,"8-11 Hours, varies by facility",,,,,,,,,,,,,,,,,,,,,,,
318,CPS_Early_Childhood_Portal_scrape.csv, Little Leaders of Tomorrow Daycare,301 N. Mayfield ,,3788302,,Community Partnerships,"8-11 Hours, varies by facility",,,,,,,,,,,,,,,,,,,,,,,
319,CPS_Early_Childhood_Portal_scrape.csv, Shinning Star Child Development Institute,3012-16 E. 92nd St. ,,9787827,,Community Partnerships,"8-11 Hours, varies by facility",,,,,,,,,,,,,,,,,,,,,,,
320,CPS_Early_Childhood_Portal_scrape.csv, Irving Park Early Learning Center,3023 W. Montrose ,,5397422,,Community Partnerships,"8-11 Hours, varies by facility",,,,,,,,,,,,,,,,,,,,,,,
321,CPS_Early_Childhood_Portal_scrape.csv, Archdiocese of Chicago - St. Sylvester,3027 W. Palmer St. ,,7725222,,Community Partnerships,"8-11 Hours, varies by facility",,,,,,,,,,,,,,,,,,,,,,,
322,CPS_Early_Childhood_Portal_scrape.csv, A-Karrasel - Avondale,3030 N. Kedzie ,,4636151,,Community Partnerships,"8-11 Hours, varies by facility",,,,,,,,,,,,,,,,,,,,,,,
323,CPS_Early_Childhood_Portal_scrape.csv, Young Scholars Developmental Institute,3038 W. 59th St. ,,9181944,,Community Partnerships,"8-11 Hours, varies by facility",,,,,,,,,,,,,,,,,,,,,,,
324,CPS_Early_Childhood_Portal_scrape.csv, YMCA South Chicago,3039 E. 91st Street ,,7219100,,Community Partnerships,"8-11 Hours, varies by facility",,,,,,,,,,,,,,,,,,,,,,,
325,CPS_Early_Childhood_Portal_scrape.csv, El Valor Corporation-Ray Gonzalez Children and Family Center,3050 E. 92nd St. ,,7219311,,Community Partnerships,"8-11 Hours, varies by facility",,,,,,,,,,,,,,,,,,,,,,,
326,CPS_Early_Childhood_Portal_scrape.csv, Kids Hope United Bridgeport CDC,3053 S. Normal ,,8425566,,Community Partnerships,"8-11 Hours, varies by facility",,,,,,,,,,,,,,,,,,,,,,,
327,CPS_Early_Childhood_Portal_scrape.csv, Kove Learning Academy,3137 W. 71st Street ,,4763083,,Community Partnerships,"8-11 Hours, varies by facility",,,,,,,,,,,,,,,,,,,,,,,
328,CPS_Early_Childhood_Portal_scrape.csv, Locke Charter School,3141 W. Jackson ,,2657232,,Community Partnerships,"8-11 Hours, varies by facility",,,,,,,,,,,,,,,,,,,,,,,
329,CPS_Early_Childhood_Portal_scrape.csv, Bethel New Life Bethel Child Development,316 N. Pulaski ,,2653830,,Community Partnerships,"8-11 Hours, varies by facility",,,,,,,,,,,,,,,,,,,,,,,
330,CPS_Early_Childhood_Portal_scrape.csv, Metropolitan Family Services,3215 W. 63rd Street ,,8842350,,Community Partnerships,"8-11 Hours, varies by facility",,,,,,,,,,,,,,,,,,,,,,,
331,CPS_Early_Childhood_Portal_scrape.csv, Chicago Youth Centers Centro Nuestro Division,3222 W. Division ,,4893157,,Community Partnerships,"8-11 Hours, varies by facility",,,,,,,,,,,,,,,,,,,,,,,
332,CPS_Early_Childhood_Portal_scrape.csv, Concordia Child Care Center Avondale,3300 N. Whipple ,,4631600,,Community Partnerships,"8-11 Hours, varies by facility",,,,,,,,,,,,,,,,,,,,,,,
333,CPS_Early_Childhood_Portal_scrape.csv, Albany Park Community Center,3401 W. Ainslie ,,5395907,,Community Partnerships,"8-11 Hours, varies by facility",,,,,,,,,,,,,,,,,,,,,,,
334,CPS_Early_Childhood_Portal_scrape.csv, St. Augustine College - Flamboyan,3401 W. McLean St. ,,2763423,,Community Partnerships,"8-11 Hours, varies by facility",,,,,,,,,,,,,,,,,,,,,,,
335,CPS_Early_Childhood_Portal_scrape.csv, Chicago Youth Centers - ABC,3415 W. 13th Pl ,,7625655,,Community Partnerships,"8-11 Hours, varies by facility",,,,,,,,,,,,,,,,,,,,,,,
336,CPS_Early_Childhood_Portal_scrape.csv, Pathways to Learning,3416 ? -18 W. 79th Street ,,4369244,,Community Partnerships,"8-11 Hours, varies by facility",,,,,,,,,,,,,,,,,,,,,,,
337,CPS_Early_Childhood_Portal_scrape.csv, A-Karrasel ? Logan Square,3420 W. Fullerton ,,7724333,,Community Partnerships,"8-11 Hours, varies by facility",,,,,,,,,,,,,,,,,,,,,,,
338,CPS_Early_Childhood_Portal_scrape.csv, Rachel's Learning Center - North Lawndale,3430 W. Roosevelt Rd. ,,5331834,,Community Partnerships,"8-11 Hours, varies by facility",,,,,,,,,,,,,,,,,,,,,,,
339,CPS_Early_Childhood_Portal_scrape.csv, YMCA North Lawndale,3449 W. Arthington ,,6380773,,Community Partnerships,"8-11 Hours, varies by facility",,,,,,,,,,,,,,,,,,,,,,,
340,CPS_Early_Childhood_Portal_scrape.csv, Pathways to Learning I/T,3450-54 W. 79th St ,,4369244,,Community Partnerships,"8-11 Hours, varies by facility",,,,,,,,,,,,,,,,,,,,,,,
341,CPS_Early_Childhood_Portal_scrape.csv," Teddy Bear Nursery School, Inc. II",3473 W. Columbus ,,2842141,,Community Partnerships,"8-11 Hours, varies by facility",,,,,,,,,,,,,,,,,,,,,,,
342,CPS_Early_Childhood_Portal_scrape.csv," Kids Count Too Daycare, Preschool and Kindergarten - Washington Heights",360-364 E. 61st ,,7523022,,Community Partnerships,"8-11 Hours, varies by facility",,,,,,,,,,,,,,,,,,,,,,,
343,CPS_Early_Childhood_Portal_scrape.csv, Lava Inc. - Chatterbox Preschool,3613 West Devon ,,4782434,,Community Partnerships,"8-11 Hours, varies by facility",,,,,,,,,,,,,,,,,,,,,,,
344,CPS_Early_Childhood_Portal_scrape.csv, Easter Seals Near South,3630 S. Wells Rm. 105 ,,5483614,,Community Partnerships,"8-11 Hours, varies by facility",,,,,,,,,,,,,,,,,,,,,,,
345,CPS_Early_Childhood_Portal_scrape.csv, Center for New Horizons Ida B. Wells,3641 S. Rhodes ,,3733640,,Community Partnerships,"8-11 Hours, varies by facility",,,,,,,,,,,,,,,,,,,,,,,
346,CPS_Early_Childhood_Portal_scrape.csv, Firman Pre-School West,37 W. 47th Street ,,3733400,,Community Partnerships,"8-11 Hours, varies by facility",,,,,,,,,,,,,,,,,,,,,,,
347,CPS_Early_Childhood_Portal_scrape.csv, Carole Robertson Center Jubilee,3701 W. Ogden ,,5228400,,Community Partnerships,"8-11 Hours, varies by facility",,,,,,,,,,,,,,,,,,,,,,,
348,CPS_Early_Childhood_Portal_scrape.csv, Ada S. McKinley St. Thomas CDC,3801 S. Wabash ,,2850617,,Community Partnerships,"8-11 Hours, varies by facility",,,,,,,,,,,,,,,,,,,,,,,
349,CPS_Early_Childhood_Portal_scrape.csv, Concordia Child Care Center,3855 N. Seeley ,,9353739,,Community Partnerships,"8-11 Hours, varies by facility",,,,,,,,,,,,,,,,,,,,,,,
350,CPS_Early_Childhood_Portal_scrape.csv, Little Giant Child Care Center,3863 W. Harrison ,,2656330,,Community Partnerships,"8-11 Hours, varies by facility",,,,,,,,,,,,,,,,,,,,,,,
351,CPS_Early_Childhood_Portal_scrape.csv," Kidwatch Plus, Inc.",3901 N. Ridgeway ,,5395431,,Community Partnerships,"8-11 Hours, varies by facility",,,,,,,,,,,,,,,,,,,,,,,
352,CPS_Early_Childhood_Portal_scrape.csv, Centers for New Horizons Edison L. Hoard,3901 S. State Street ,,5362187,,Community Partnerships,"8-11 Hours, varies by facility",,,,,,,,,,,,,,,,,,,,,,,
353,CPS_Early_Childhood_Portal_scrape.csv, It Takes a Village Child Care Services,4000 W. Division ,,2761730,,Community Partnerships,"8-11 Hours, varies by facility",,,,,,,,,,,,,,,,,,,,,,,
354,CPS_Early_Childhood_Portal_scrape.csv, Happy Holiday Nursery & Kindergarten,401 E. 111th Street ,,8217009,,Community Partnerships,"8-11 Hours, varies by facility",,,,,,,,,,,,,,,,,,,,,,,
355,CPS_Early_Childhood_Portal_scrape.csv, Frazier Preparatory Academy,4027 W. Grenshaw ,,5358653,,Community Partnerships,"8-11 Hours, varies by facility",,,,,,,,,,,,,,,,,,,,,,,
356,CPS_Early_Childhood_Portal_scrape.csv, Northwest Institute,4040 W. Division ,,9212800,,Community Partnerships,"8-11 Hours, varies by facility",,,,,,,,,,,,,,,,,,,,,,,
357,CPS_Early_Childhood_Portal_scrape.csv, Caring Hands A Step Ahead,4208-20 N. Broadway ,,4048664,,Community Partnerships,"8-11 Hours, varies by facility",,,,,,,,,,,,,,,,,,,,,,,
358,CPS_Early_Childhood_Portal_scrape.csv, Abraham Lincoln Center Near South,4210 S. Berkley ,,4513360,,Community Partnerships,"8-11 Hours, varies by facility",,,,,,,,,,,,,,,,,,,,,,,
359,CPS_Early_Childhood_Portal_scrape.csv, Legacy Charter School (at Mason School),4217 W. 18th St. ,,5421640,,Community Partnerships,"8-11 Hours, varies by facility",,,,,,,,,,,,,,,,,,,,,,,
360,CPS_Early_Childhood_Portal_scrape.csv, Legacy Charter School (at Mason School),4217 W. 18th St. ,,5421640,,Community Partnerships,"8-11 Hours, varies by facility",,,,,,,,,,,,,,,,,,,,,,,
361,CPS_Early_Childhood_Portal_scrape.csv, Salvation Army New Hope,4255 W. Division ,,7724908,,Community Partnerships,"8-11 Hours, varies by facility",,,,,,,,,,,,,,,,,,,,,,,
362,CPS_Early_Childhood_Portal_scrape.csv, Korean American Community Services,4300 N. California ,,5838281,,Community Partnerships,"8-11 Hours, varies by facility",,,,,,,,,,,,,,,,,,,,,,,
363,CPS_Early_Childhood_Portal_scrape.csv, Centers for New Horizons Effie O. Ellis,4301 S. Cottage Grove ,,5489839,,Community Partnerships,"8-11 Hours, varies by facility",,,,,,,,,,,,,,,,,,,,,,,
364,CPS_Early_Childhood_Portal_scrape.csv, Ada S. McKinley Maggie Drummond,4301 S. Wabash ,,3738200,,Community Partnerships,"8-11 Hours, varies by facility",,,,,,,,,,,,,,,,,,,,,,,
365,CPS_Early_Childhood_Portal_scrape.csv, Abraham Lincoln Center - King,4314 S. Cottage Grove ,,7472310,,Community Partnerships,"8-11 Hours, varies by facility",,,,,,,,,,,,,,,,,,,,,,,
366,CPS_Early_Childhood_Portal_scrape.csv, Golden Gate Day Care Center,432 E. 134th Street ,,9287085,,Community Partnerships,"8-11 Hours, varies by facility",,,,,,,,,,,,,,,,,,,,,,,
367,CPS_Early_Childhood_Portal_scrape.csv, Archdiocese of Chicago - Pope John Paul II,4325 S. Richmond Ave. ,,5236161,,Community Partnerships,"8-11 Hours, varies by facility",,,,,,,,,,,,,,,,,,,,,,,
368,CPS_Early_Childhood_Portal_scrape.csv," Jones Academy, Inc.",4344 S. Wentworth ,,3077507,,Community Partnerships,"8-11 Hours, varies by facility",,,,,,,,,,,,,,,,,,,,,,,
369,CPS_Early_Childhood_Portal_scrape.csv," Fairyland Nursery School, Inc.",4350 N. Milwaukee ,,7251246,,Community Partnerships,"8-11 Hours, varies by facility",,,,,,,,,,,,,,,,,,,,,,,
370,CPS_Early_Childhood_Portal_scrape.csv, Hull House Assn. LeClaire Hearst Ryder,4410 S. LaPorte ,,7670925,,Community Partnerships,"8-11 Hours, varies by facility",,,,,,,,,,,,,,,,,,,,,,,
371,CPS_Early_Childhood_Portal_scrape.csv, Kiddy Kare Preschools Kiddy Kare I,4444 S. Kedzie ,,2476642,,Community Partnerships,"8-11 Hours, varies by facility",,,,,,,,,,,,,,,,,,,,,,,
372,CPS_Early_Childhood_Portal_scrape.csv, Hull House Association Uptown Center,4520 N. Beacon ,,5613500,,Community Partnerships,"8-11 Hours, varies by facility",,,,,,,,,,,,,,,,,,,,,,,
373,CPS_Early_Childhood_Portal_scrape.csv, St. Paul Church of God in Christ-Chaney Ford Child Care Center,4526 S. Wabash ,,2858721,,Community Partnerships,"8-11 Hours, varies by facility",,,,,,,,,,,,,,,,,,,,,,,
374,CPS_Early_Childhood_Portal_scrape.csv, Chicago Youth Centers Roseland,461 E. 111th Street ,,4684405,,Community Partnerships,"8-11 Hours, varies by facility",,,,,,,,,,,,,,,,,,,,,,,
375,CPS_Early_Childhood_Portal_scrape.csv, Home of Life Just for You,4647 W. Washington ,,6268655,,Community Partnerships,"8-11 Hours, varies by facility",,,,,,,,,,,,,,,,,,,,,,,
376,CPS_Early_Childhood_Portal_scrape.csv, Home of Life II,4650 W. Madison ,,6268655,,Community Partnerships,"8-11 Hours, varies by facility",,,,,,,,,,,,,,,,,,,,,,,
377,CPS_Early_Childhood_Portal_scrape.csv, Christopher House Uptown,4701 N. Winthrop ,,7694540,,Community Partnerships,"8-11 Hours, varies by facility",,,,,,,,,,,,,,,,,,,,,,,
378,CPS_Early_Childhood_Portal_scrape.csv, Creative Mansion Children?s Academy,4745 S. Ellis ,,2686066,,Community Partnerships,"8-11 Hours, varies by facility",,,,,,,,,,,,,,,,,,,,,,,
379,CPS_Early_Childhood_Portal_scrape.csv, First Start Child Care Academy,4753-59 W. Washington ,,3794928,,Community Partnerships,"8-11 Hours, varies by facility",,,,,,,,,,,,,,,,,,,,,,,
380,CPS_Early_Childhood_Portal_scrape.csv, Hull House Association Lincoln Square,4754 N. Leavitt ,,8789651,,Community Partnerships,"8-11 Hours, varies by facility",,,,,,,,,,,,,,,,,,,,,,,
381,CPS_Early_Childhood_Portal_scrape.csv, Catholic Charities - St. Joseph,4800 S. Paulina ,,9272524,,Community Partnerships,"8-11 Hours, varies by facility",,,,,,,,,,,,,,,,,,,,,,,
382,CPS_Early_Childhood_Portal_scrape.csv, Archdiocese of Chicago - St. Thomas of Canterbury,4827 N. Kenmore ,,2810018,,Community Partnerships,"8-11 Hours, varies by facility",,,,,,,,,,,,,,,,,,,,,,,
383,CPS_Early_Childhood_Portal_scrape.csv, Lutheran Social Services Winthrop,4848 N. Winthrop ,,8783210,,Community Partnerships,"8-11 Hours, varies by facility",,,,,,,,,,,,,,,,,,,,,,,
384,CPS_Early_Childhood_Portal_scrape.csv, Ravenswood Community Child Care,4908 N. Damen ,,2714495,,Community Partnerships,"8-11 Hours, varies by facility",,,,,,,,,,,,,,,,,,,,,,,
385,CPS_Early_Childhood_Portal_scrape.csv, Firman Pre-School East,4910 S. DR MARTIN LUTHER KING JRDrive ,,3732083,,Community Partnerships,"8-11 Hours, varies by facility",,,,,,,,,,,,,,,,,,,,,,,
386,CPS_Early_Childhood_Portal_scrape.csv, Hull House Assn. Parkway,500 E. 67th Street ,,4931306,,Community Partnerships,"8-11 Hours, varies by facility",,,,,,,,,,,,,,,,,,,,,,,
387,CPS_Early_Childhood_Portal_scrape.csv, Salvation Army Columbus Park,500 S. Central ,,9214162,,Community Partnerships,"8-11 Hours, varies by facility",,,,,,,,,,,,,,,,,,,,,,,
388,CPS_Early_Childhood_Portal_scrape.csv, Children?s House - Lake Meadows,501 East 32nd Street ,,2252223,,Community Partnerships,"8-11 Hours, varies by facility",,,,,,,,,,,,,,,,,,,,,,,
389,CPS_Early_Childhood_Portal_scrape.csv, Ounce of Prevention Fund Educare,5044 S. Wabash ,,9242334,,Community Partnerships,"8-11 Hours, varies by facility",,,,,,,,,,,,,,,,,,,,,,,
390,CPS_Early_Childhood_Portal_scrape.csv, South East Asia Center Broadway,5120 N. Broadway ,,9890960,,Community Partnerships,"8-11 Hours, varies by facility",,,,,,,,,,,,,,,,,,,,,,,
391,CPS_Early_Childhood_Portal_scrape.csv," All About Kids Learning Academy, Inc.",514 E. 75th St. ,,2555530,,Community Partnerships,"8-11 Hours, varies by facility",,,,,,,,,,,,,,,,,,,,,,,
392,CPS_Early_Childhood_Portal_scrape.csv, Kids Hope United - CDC,5144 N. Lakewood ,,3245612,,Community Partnerships,"8-11 Hours, varies by facility",,,,,,,,,,,,,,,,,,,,,,,
393,CPS_Early_Childhood_Portal_scrape.csv, North Kenwood Day Care Center,516-18 E. 43rd St ,,2682223,,Community Partnerships,"8-11 Hours, varies by facility",,,,,,,,,,,,,,,,,,,,,,,
394,CPS_Early_Childhood_Portal_scrape.csv," Teddy Bear Nursery School, Inc. V",5160 S. Pulaski ,,2847030,,Community Partnerships,"8-11 Hours, varies by facility",,,,,,,,,,,,,,,,,,,,,,,
395,CPS_Early_Childhood_Portal_scrape.csv," Whiz Kids Nursery Center, Inc.",518 W. 103rd St. ,,2339445,,Community Partnerships,"8-11 Hours, varies by facility",,,,,,,,,,,,,,,,,,,,,,,
396,CPS_Early_Childhood_Portal_scrape.csv, Young Achievers,520 E. 79th ,,2639688,,Community Partnerships,"8-11 Hours, varies by facility",,,,,,,,,,,,,,,,,,,,,,,
397,CPS_Early_Childhood_Portal_scrape.csv, Rachel's Learning Center - Austin,5242 W. North Ave. ,,2371444,,Community Partnerships,"8-11 Hours, varies by facility",,,,,,,,,,,,,,,,,,,,,,,
398,CPS_Early_Childhood_Portal_scrape.csv, Trinity United Church of Christ,532 W. 95th Street ,,4883511,,Community Partnerships,"8-11 Hours, varies by facility",,,,,,,,,,,,,,,,,,,,,,,
399,CPS_Early_Childhood_Portal_scrape.csv, Catholic Charities Grace Mission,5332 S. Western ,,4761990,,Community Partnerships,"8-11 Hours, varies by facility",,,,,,,,,,,,,,,,,,,,,,,
400,CPS_Early_Childhood_Portal_scrape.csv, Mosaic Early Childhood Academy,5332 W. Addison ,,7777411,,Community Partnerships,"8-11 Hours, varies by facility",,,,,,,,,,,,,,,,,,,,,,,
401,CPS_Early_Childhood_Portal_scrape.csv, Firman Preschool South,5401 S. Wentworth ,,4513400,,Community Partnerships,"8-11 Hours, varies by facility",,,,,,,,,,,,,,,,,,,,,,,
402,CPS_Early_Childhood_Portal_scrape.csv, Archdiocese of Chicago - Holy Angels School,545 E. Oakwood Blvd. ,,6240727,,Community Partnerships,"8-11 Hours, varies by facility",,,,,,,,,,,,,,,,,,,,,,,
403,CPS_Early_Childhood_Portal_scrape.csv, Bunnyland Developmental Childcare,545 W. 119th Street ,,5685200,,Community Partnerships,"8-11 Hours, varies by facility",,,,,,,,,,,,,,,,,,,,,,,
404,CPS_Early_Childhood_Portal_scrape.csv, Chicago Child Care Society,5467 S. University ,,2562450,,Community Partnerships,"8-11 Hours, varies by facility",,,,,,,,,,,,,,,,,,,,,,,
405,CPS_Early_Childhood_Portal_scrape.csv, Northeastern Illinois University,5500 N. St. Louis ,,4424540,,Community Partnerships,"8-11 Hours, varies by facility",,,,,,,,,,,,,,,,,,,,,,,
406,CPS_Early_Childhood_Portal_scrape.csv, A-Karrasel ? Galewood Center,5504 W. Fullerton ,,6371022,,Community Partnerships,"8-11 Hours, varies by facility",,,,,,,,,,,,,,,,,,,,,,,
407,CPS_Early_Childhood_Portal_scrape.csv, Allison's Infant and Toddler Center,5522 S. Racine ,,4363193,,Community Partnerships,"8-11 Hours, varies by facility",,,,,,,,,,,,,,,,,,,,,,,
408,CPS_Early_Childhood_Portal_scrape.csv, Marcy-Newberry Austin Town Hall,5610 W. Lake St. ,,2611062,,Community Partnerships,"8-11 Hours, varies by facility",,,,,,,,,,,,,,,,,,,,,,,
409,CPS_Early_Childhood_Portal_scrape.csv, Lake Shore Schools - Clark,5611 N. Clark Street ,,5616707,,Community Partnerships,"8-11 Hours, varies by facility",,,,,,,,,,,,,,,,,,,,,,,
410,CPS_Early_Childhood_Portal_scrape.csv, Kiddy Kare Preschools Little Learners,5923 W. 63rd St. ,,5815541,,Community Partnerships,"8-11 Hours, varies by facility",,,,,,,,,,,,,,,,,,,,,,,
411,CPS_Early_Childhood_Portal_scrape.csv, Improved Child Care Albany Child Care,5954 S. Albany ,,7377810,,Community Partnerships,"8-11 Hours, varies by facility",,,,,,,,,,,,,,,,,,,,,,,
412,CPS_Early_Childhood_Portal_scrape.csv, Onward Neighborhood House,600 N. Leavitt ,,6666726,,Community Partnerships,"8-11 Hours, varies by facility",,,,,,,,,,,,,,,,,,,,,,,
413,CPS_Early_Childhood_Portal_scrape.csv, Easter Seals Windy City Kids,600 W. Madison ,,5756550,,Community Partnerships,"8-11 Hours, varies by facility",,,,,,,,,,,,,,,,,,,,,,,
414,CPS_Early_Childhood_Portal_scrape.csv, Learning Center of Heartland Human Care Services,615 W. Wellington Ave. ,,7511870,,Community Partnerships,"8-11 Hours, varies by facility",,,,,,,,,,,,,,,,,,,,,,,
415,CPS_Early_Childhood_Portal_scrape.csv, Center for New Horizons Washington Park,6225 S. Wabash ,,6672065,,Community Partnerships,"8-11 Hours, varies by facility",,,,,,,,,,,,,,,,,,,,,,,
416,CPS_Early_Childhood_Portal_scrape.csv, Boys & Girls Clubs John L. Yancey,6245 S. Wabash ,,3634733,,Community Partnerships,"8-11 Hours, varies by facility",,,,,,,,,,,,,,,,,,,,,,,
417,CPS_Early_Childhood_Portal_scrape.csv, Kiddy Kare Preschools Kidz Colony,6287 S. Archer ,,7678522,,Community Partnerships,"8-11 Hours, varies by facility",,,,,,,,,,,,,,,,,,,,,,,
418,CPS_Early_Childhood_Portal_scrape.csv, YMCA South Side,6330 S. Stony Island ,,9470700,,Community Partnerships,"8-11 Hours, varies by facility",,,,,,,,,,,,,,,,,,,,,,,
419,CPS_Early_Childhood_Portal_scrape.csv," Teddy Bear Nursery School, Inc. III",6401 S. Pulaski ,,2842292,,Community Partnerships,"8-11 Hours, varies by facility",,,,,,,,,,,,,,,,,,,,,,,
420,CPS_Early_Childhood_Portal_scrape.csv, New Hope Lutheran School,6416 S. Washtenaw ,,7769849,,Community Partnerships,"8-11 Hours, varies by facility",,,,,,,,,,,,,,,,,,,,,,,
421,CPS_Early_Childhood_Portal_scrape.csv, Metropolitan Family Services Midway,6422 S. Kedzie ,,7374790,,Community Partnerships,"8-11 Hours, varies by facility",,,,,,,,,,,,,,,,,,,,,,,
422,CPS_Early_Childhood_Portal_scrape.csv, Granny's Daycare Center,645 W. 127th St. ,,8485827,,Community Partnerships,"8-11 Hours, varies by facility",,,,,,,,,,,,,,,,,,,,,,,
423,CPS_Early_Childhood_Portal_scrape.csv, Mt. Ararat Day Care,6514-16 W. Higgins Ave. ,,5939763,,Community Partnerships,"8-11 Hours, varies by facility",,,,,,,,,,,,,,,,,,,,,,,
424,CPS_Early_Childhood_Portal_scrape.csv, Archdiocese of Chicago - Academy of St. Benedict the African (Stewart),6547 S. Stewart Ave. ,,9946100,,Community Partnerships,"8-11 Hours, varies by facility",,,,,,,,,,,,,,,,,,,,,,,
425,CPS_Early_Childhood_Portal_scrape.csv, Little Angels Family Daycare,6701 S. Emerald ,,3703688,,Community Partnerships,"8-11 Hours, varies by facility",,,,,,,,,,,,,,,,,,,,,,,
426,CPS_Early_Childhood_Portal_scrape.csv, Lake Shore Schools - Greenview,6759 N. Greenview ,,7431118,,Community Partnerships,"8-11 Hours, varies by facility",,,,,,,,,,,,,,,,,,,,,,,
427,CPS_Early_Childhood_Portal_scrape.csv, Trinity United Church of Christ Denton Brooks,6921 S. Stony Island ,,9552818,,Community Partnerships,"8-11 Hours, varies by facility",,,,,,,,,,,,,,,,,,,,,,,
428,CPS_Early_Childhood_Portal_scrape.csv," Fresh Start Daycare, Inc.",6924 W. North Avenue ,,4792870,,Community Partnerships,"8-11 Hours, varies by facility",,,,,,,,,,,,,,,,,,,,,,,
429,CPS_Early_Childhood_Portal_scrape.csv, Eyes on the Future,6969 N. Ravenswood ,,9730771,,Community Partnerships,"8-11 Hours, varies by facility",,,,,,,,,,,,,,,,,,,,,,,
430,CPS_Early_Childhood_Portal_scrape.csv, Abraham Lincoln Centre Roseland,7 E. 119th St. ,,2647633,,Community Partnerships,"8-11 Hours, varies by facility",,,,,,,,,,,,,,,,,,,,,,,
431,CPS_Early_Childhood_Portal_scrape.csv, YMCA Garfield,7 N. Homan Avenue ,,2653900,,Community Partnerships,"8-11 Hours, varies by facility",,,,,,,,,,,,,,,,,,,,,,,
432,CPS_Early_Childhood_Portal_scrape.csv, Children?s Developmental Institute SS,7037 S. Stony Island ,,3633200,,Community Partnerships,"8-11 Hours, varies by facility",,,,,,,,,,,,,,,,,,,,,,,
433,CPS_Early_Childhood_Portal_scrape.csv, Christopher House Rogers Park,7059 N. Greenview ,,2745477,,Community Partnerships,"8-11 Hours, varies by facility",,,,,,,,,,,,,,,,,,,,,,,
434,CPS_Early_Childhood_Portal_scrape.csv, Abraham Lincoln Center Donoghue,707 E. 37th St. ,,7295325,,Community Partnerships,"8-11 Hours, varies by facility",,,,,,,,,,,,,,,,,,,,,,,
435,CPS_Early_Childhood_Portal_scrape.csv, City Colleges Kennedy King CDC,710 W. 65th St ,,6025447,,Community Partnerships,"8-11 Hours, varies by facility",,,,,,,,,,,,,,,,,,,,,,,
436,CPS_Early_Childhood_Portal_scrape.csv, Archdiocese of Chicago - St. Columbanus School,7120 S. Calumet Ave. ,,2243811,,Community Partnerships,"8-11 Hours, varies by facility",,,,,,,,,,,,,,,,,,,,,,,
437,CPS_Early_Childhood_Portal_scrape.csv, Archdiocese of Chicago - Queen of the Universe,7130 S. Hamlin ,,5824266,,Community Partnerships,"8-11 Hours, varies by facility",,,,,,,,,,,,,,,,,,,,,,,
438,CPS_Early_Childhood_Portal_scrape.csv, Little Hands Child Creative Center,7146-48 S. Ashland Ave. ,,4710662,,Community Partnerships,"8-11 Hours, varies by facility",,,,,,,,,,,,,,,,,,,,,,,
439,CPS_Early_Childhood_Portal_scrape.csv, Ada S. McKinley Ersula Howard,7222 S. Exchange ,,2219711,,Community Partnerships,"8-11 Hours, varies by facility",,,,,,,,,,,,,,,,,,,,,,,
440,CPS_Early_Childhood_Portal_scrape.csv, UIC Children?s Center I - East,728 W. Roosevelt (m/c 050) Rm. 287 ,,4135331,,Community Partnerships,"8-11 Hours, varies by facility",,,,,,,,,,,,,,,,,,,,,,,
441,CPS_Early_Childhood_Portal_scrape.csv," Itsy Bitsy People Palace, Inc.",7419 S. Cottage Grove ,,8467396,,Community Partnerships,"8-11 Hours, varies by facility",,,,,,,,,,,,,,,,,,,,,,,
442,CPS_Early_Childhood_Portal_scrape.csv, Little People Day Care & Kindergarten,7428 N. Rogers Ave. ,,7612305,,Community Partnerships,"8-11 Hours, varies by facility",,,,,,,,,,,,,,,,,,,,,,,
443,CPS_Early_Childhood_Portal_scrape.csv, Chicago Commons NIA,744 N. Monticello ,,8264259,,Community Partnerships,"8-11 Hours, varies by facility",,,,,,,,,,,,,,,,,,,,,,,
444,CPS_Early_Childhood_Portal_scrape.csv, City Colleges Daley Semester Program,7500 S. Pulaski ,,8387562,,Community Partnerships,"8-11 Hours, varies by facility",,,,,,,,,,,,,,,,,,,,,,,
445,CPS_Early_Childhood_Portal_scrape.csv, Howard Area Early Childhood Center,7510 N. Ashland ,,7647610,,Community Partnerships,"8-11 Hours, varies by facility",,,,,,,,,,,,,,,,,,,,,,,
446,CPS_Early_Childhood_Portal_scrape.csv, Jolly Fun House Playschool,7559 W. Addison ,,6376115,,Community Partnerships,"8-11 Hours, varies by facility",,,,,,,,,,,,,,,,,,,,,,,
447,CPS_Early_Childhood_Portal_scrape.csv, Chicago Youth Centers Rebecca K. Crown,7601 S. Phillips ,,7310444,,Community Partnerships,"8-11 Hours, varies by facility",,,,,,,,,,,,,,,,,,,,,,,
448,CPS_Early_Childhood_Portal_scrape.csv, Archdiocese of Chicago - St. Sabina Academy,7800 S. Throop St. ,,4835000,,Community Partnerships,"8-11 Hours, varies by facility",,,,,,,,,,,,,,,,,,,,,,,
449,CPS_Early_Childhood_Portal_scrape.csv, New Concept,7825 S. Ellis ,,6519599,,Community Partnerships,"8-11 Hours, varies by facility",,,,,,,,,,,,,,,,,,,,,,,
450,CPS_Early_Childhood_Portal_scrape.csv, Ada S. McKinley Wright Renaissance,7939 S. Western ,,4768805,,Community Partnerships,"8-11 Hours, varies by facility",,,,,,,,,,,,,,,,,,,,,,,
451,CPS_Early_Childhood_Portal_scrape.csv, Ezzard Charles School,7946 S. Ashland ,,4870227,,Community Partnerships,"8-11 Hours, varies by facility",,,,,,,,,,,,,,,,,,,,,,,
452,CPS_Early_Childhood_Portal_scrape.csv, Children?s Center for Creative Learning,7954-58 S. Western ,,4714927,,Community Partnerships,"8-11 Hours, varies by facility",,,,,,,,,,,,,,,,,,,,,,,
453,CPS_Early_Childhood_Portal_scrape.csv, Tiny Tot Villa,8128 S. DR MARTIN LUTHER KING JR Drive ,,4836251,,Community Partnerships,"8-11 Hours, varies by facility",,,,,,,,,,,,,,,,,,,,,,,
454,CPS_Early_Childhood_Portal_scrape.csv, NIA LTD. The Learning Tree,8128 S. Kedzie ,,7788802,,Community Partnerships,"8-11 Hours, varies by facility",,,,,,,,,,,,,,,,,,,,,,,
455,CPS_Early_Childhood_Portal_scrape.csv, New Pisgah Day Care Center,8128 S. Racine Ave. ,,8735392,,Community Partnerships,"8-11 Hours, varies by facility",,,,,,,,,,,,,,,,,,,,,,,
456,CPS_Early_Childhood_Portal_scrape.csv," Terry Town Nursery School, Inc.",817 N. Hamlin ,,4894271,,Community Partnerships,"8-11 Hours, varies by facility",,,,,,,,,,,,,,,,,,,,,,,
457,CPS_Early_Childhood_Portal_scrape.csv, Chipper Preschool,8225-29 S. Kedzie ,,7785757,,Community Partnerships,"8-11 Hours, varies by facility",,,,,,,,,,,,,,,,,,,,,,,
458,CPS_Early_Childhood_Portal_scrape.csv, Archdiocese of Chicago - St. Michael,8231 S. Shore Drive ,,2210212,,Community Partnerships,"8-11 Hours, varies by facility",,,,,,,,,,,,,,,,,,,,,,,
459,CPS_Early_Childhood_Portal_scrape.csv, Pinks Child Care Academy,8236 S. Kedzie ,,8637465,,Community Partnerships,"8-11 Hours, varies by facility",,,,,,,,,,,,,,,,,,,,,,,
460,CPS_Early_Childhood_Portal_scrape.csv, South Central Holistic PreK Program,8316 S. Ellis ,,4830900,,Community Partnerships,"8-11 Hours, varies by facility",,,,,,,,,,,,,,,,,,,,,,,
461,CPS_Early_Childhood_Portal_scrape.csv, South Harper Montessori School,8358 S. Stony Island ,,7340303,,Community Partnerships,"8-11 Hours, varies by facility",,,,,,,,,,,,,,,,,,,,,,,
462,CPS_Early_Childhood_Portal_scrape.csv, Bethune Educational Center,843 W. 103rd Street ,,2336100,,Community Partnerships,"8-11 Hours, varies by facility",,,,,,,,,,,,,,,,,,,,,,,
463,CPS_Early_Childhood_Portal_scrape.csv, Christopher House Lakeshore,850 W. Eastwood ,,2719403,,Community Partnerships,"8-11 Hours, varies by facility",,,,,,,,,,,,,,,,,,,,,,,
464,CPS_Early_Childhood_Portal_scrape.csv, Institute for Creative Learning,8515 S. Stony Island ,,7686688,,Community Partnerships,"8-11 Hours, varies by facility",,,,,,,,,,,,,,,,,,,,,,,
465,CPS_Early_Childhood_Portal_scrape.csv, Dorothy Sutton Branch Headstart and Daycare,8601 S. State St. ,,7234445,,Community Partnerships,"8-11 Hours, varies by facility",,,,,,,,,,,,,,,,,,,,,,,
466,CPS_Early_Childhood_Portal_scrape.csv, McCann?s Daycare Center,8612 S. Stony Island ,,3757932,,Community Partnerships,"8-11 Hours, varies by facility",,,,,,,,,,,,,,,,,,,,,,,
467,CPS_Early_Childhood_Portal_scrape.csv, Little Elite Academy,8748 S. Aberdeen ,,4487990,,Community Partnerships,"8-11 Hours, varies by facility",,,,,,,,,,,,,,,,,,,,,,,
468,CPS_Early_Childhood_Portal_scrape.csv, Tots Express Learning Center,8938-40 S. Cottage Grove ,,7238687,,Community Partnerships,"8-11 Hours, varies by facility",,,,,,,,,,,,,,,,,,,,,,,
469,CPS_Early_Childhood_Portal_scrape.csv, Children's Village Day Care and Kindergarten,9011 S. Cottage Grove ,,8731700,,Community Partnerships,"8-11 Hours, varies by facility",,,,,,,,,,,,,,,,,,,,,,,
470,CPS_Early_Childhood_Portal_scrape.csv, Chesterfield Tom Thumb Day Care 2,9214 S. Cottage Grove ,,8743985,,Community Partnerships,"8-11 Hours, varies by facility",,,,,,,,,,,,,,,,,,,,,,,
471,CPS_Early_Childhood_Portal_scrape.csv, Centers for New Horizons Altgeld Gardens I,941 E. 132nd Street ,,4683055,,Community Partnerships,"8-11 Hours, varies by facility",,,,,,,,,,,,,,,,,,,,,,,
472,CPS_Early_Childhood_Portal_scrape.csv, Salvation Army Red Shield,945 W. 69th St. ,,3583224,,Community Partnerships,"8-11 Hours, varies by facility",,,,,,,,,,,,,,,,,,,,,,,
473,CPS_Early_Childhood_Portal_scrape.csv, Woodlawn Early Childhood Development,950 E. 61st Street ,,6673300,,Community Partnerships,"8-11 Hours, varies by facility",,,,,,,,,,,,,,,,,,,,,,,
474,CPS_Early_Childhood_Portal_scrape.csv, Chicago State University,9501 S. DR MARTIN LUTHER KING JR Drive ,,9952556,,Community Partnerships,"8-11 Hours, varies by facility",,,,,,,,,,,,,,,,,,,,,,,
475,CPS_Early_Childhood_Portal_scrape.csv, Chicago Youth Centers Dorothy Gautreaux,975 E. 132nd Street ,,2911000,,Community Partnerships,"8-11 Hours, varies by facility",,,,,,,,,,,,,,,,,,,,,,,
476,CPS_Early_Childhood_Portal_scrape.csv, Archdiocese of Chicago - St. Margaret of Scottland,9833 S. Throop St. ,,2381088,,Community Partnerships,"8-11 Hours, varies by facility",,,,,,,,,,,,,,,,,,,,,,,
477,CPS_Early_Childhood_Portal_scrape.csv, Carole Robertson Center For Learning - Maribella Rodriguez,1012 N Kedvale Ave ,,,,Early Head Start,EXTENDED DAY,,,,,,,,,,,,,,,,,,,,,,,
478,CPS_Early_Childhood_Portal_scrape.csv, Hull House Association - Child Dev. Central Office- Hull House CDS-Homes,1030 W Van Buren St ,,9068600,,Early Head Start,EXTENDED DAY,,,,,,,,,,,,,,,,,,,,,,,
479,CPS_Early_Childhood_Portal_scrape.csv, Hull House Association - Child Dev. Central Office- Hull House CDS-Homes,1030 W Van Buren St ,,9068600,,Early Head Start,EXTENDED DAY,,,,,,,,,,,,,,,,,,,,,,,
480,CPS_Early_Childhood_Portal_scrape.csv, Marcy Newberry Association - FOSCO ABLA Center,1312 S Racine Ave ,,7466024,,Early Head Start,EXTENDED DAY,,,,,,,,,,,,,,,,,,,,,,,
481,CPS_Early_Childhood_Portal_scrape.csv, Marcy Newberry Association - FOSCO ABLA Center,1312 S Racine Ave ,,7466024,,Early Head Start,EXTENDED DAY,,,,,,,,,,,,,,,,,,,,,,,
482,CPS_Early_Childhood_Portal_scrape.csv, Chicago Commons Association - Taylor Center for New Experiences,1633 N Hamlin Ave ,,2278551,,Early Head Start,EXTENDED DAY,,,,,,,,,,,,,,,,,,,,,,,
483,CPS_Early_Childhood_Portal_scrape.csv, Erie Neighborhood House - Erie Community Center,1701 W Superior St ,,5635800,,Early Head Start,EXTENDED DAY,,,,,,,,,,,,,,,,,,,,,,,
484,CPS_Early_Childhood_Portal_scrape.csv, ChildServ - Pilsen,1711 W Garfield Blvd ,,,,Early Head Start,EXTENDED DAY,,,,,,,,,,,,,,,,,,,,,,,
485,CPS_Early_Childhood_Portal_scrape.csv, North Avenue Day Nursery - North Avenue Day Nursery,2001 W Pierce Ave ,,3424499,,Early Head Start,EXTENDED DAY,,,,,,,,,,,,,,,,,,,,,,,
486,CPS_Early_Childhood_Portal_scrape.csv, Carole Robertson Center For Learning - Delondia Robinson,2252 S Central Park Ave ,,,,Early Head Start,EXTENDED DAY,,,,,,,,,,,,,,,,,,,,,,,
487,CPS_Early_Childhood_Portal_scrape.csv, El Hogar del Nino/Cuidar - El Hogar del Nino/Cuidar- California,2325 S California Ave ,,5231629,,Early Head Start,EXTENDED DAY,,,,,,,,,,,,,,,,,,,,,,,
488,CPS_Early_Childhood_Portal_scrape.csv, El Hogar del Nino/Cuidar - El Hogar del Nino/Cuidar- California,2325 S California Ave ,,5231629,,Early Head Start,EXTENDED DAY,,,,,,,,,,,,,,,,,,,,,,,
489,CPS_Early_Childhood_Portal_scrape.csv, YMCA of Metropolitan Chicago - Rauner,2700 S Western Ave ,,8473115,,Early Head Start,EXTENDED DAY,,,,,,,,,,,,,,,,,,,,,,,
490,CPS_Early_Childhood_Portal_scrape.csv, YMCA of Metropolitan Chicago - Rauner,2700 S Western Ave ,,8473115,,Early Head Start,EXTENDED DAY,,,,,,,,,,,,,,,,,,,,,,,
491,CPS_Early_Childhood_Portal_scrape.csv, Carole Robertson Center For Learning - Aurora Nunez,2701 W 18th St ,,,,Early Head Start,EXTENDED DAY,,,,,,,,,,,,,,,,,,,,,,,
492,CPS_Early_Childhood_Portal_scrape.csv, Carole Robertson Center For Learning - Carole Robertson Center 2929,2929 W 19th St ,,5211600,,Early Head Start,EXTENDED DAY,,,,,,,,,,,,,,,,,,,,,,,
493,CPS_Early_Childhood_Portal_scrape.csv, Carole Robertson Center For Learning - Carole Robertson Center 2929,2929 W 19th St ,,5211600,,Early Head Start,EXTENDED DAY,,,,,,,,,,,,,,,,,,,,,,,
494,CPS_Early_Childhood_Portal_scrape.csv, Carole Robertson Center For Learning - Sharon James,311 N Waller Ave ,,,,Early Head Start,EXTENDED DAY,,,,,,,,,,,,,,,,,,,,,,,
495,CPS_Early_Childhood_Portal_scrape.csv, ChildServ - FSS of Lawndale,3210 W Arthington St ,,8677370,,Early Head Start,EXTENDED DAY,,,,,,,,,,,,,,,,,,,,,,,
496,CPS_Early_Childhood_Portal_scrape.csv, ChildServ - FSS of Lawndale,3210 W Arthington St ,,8677370,,Early Head Start,EXTENDED DAY,,,,,,,,,,,,,,,,,,,,,,,
497,CPS_Early_Childhood_Portal_scrape.csv, YMCA of Metropolitan Chicago - YMCA - Marshall High School,3250 W Adams St ,,2650022,,Early Head Start,EXTENDED DAY,,,,,,,,,,,,,,,,,,,,,,,
498,CPS_Early_Childhood_Portal_scrape.csv, YMCA of Metropolitan Chicago - North Lawndale YMCA,3449 W Arthington St ,,6380773,,Early Head Start,EXTENDED DAY,,,,,,,,,,,,,,,,,,,,,,,
499,CPS_Early_Childhood_Portal_scrape.csv, YMCA of Metropolitan Chicago - North Lawndale YMCA,3449 W Arthington St ,,6380773,,Early Head Start,EXTENDED DAY,,,,,,,,,,,,,,,,,,,,,,,
500,CPS_Early_Childhood_Portal_scrape.csv, Easter Seals Society of Metropolitan Chicago - Near South Side,3630 S Wells Ave ,,5483614,,Early Head Start,EXTENDED DAY,,,,,,,,,,,,,,,,,,,,,,,
